{
 "type": "FeatureCollection",
 "features": [
  {
   "type": "Feature",
   "geometry": {
    "type": "Polygon",
    "coordinates": [
     [
      [
       -1.2126764664335556,
       51.73374056773266
      ],
      [
       -1.2112258964976303,
       51.73374056773266
      ],
      [
       -1.2112258964976303,
       51.73463887890765
      ],
      [
       -1.2126764664335556,
       51.73463887890765
      ],
      [
       -1.2126764664335556,
       51.73374056773266
      ]
     ]
    ]
   },
   "properties": {
    "block_id": "57590_-836",
    "label": "Between Towns Road / Cowley",
    "locality": "Temple Cowley",
    "doors": 73,
    "markers": 3,
    "renters": 192,
    "renters_per_150sqm": 2.9,
    "top20_agency_listings": 43,
    "top20_per_150sqm": 0.64,
    "lat": 51.73410619178082,
    "lon": -1.2124163150684932,
    "streets": [
     {
      "street": "Between Towns Road",
      "hmo_count": 0,
      "selective_count": 48,
      "doors": 48,
      "renters": 110
     },
     {
      "street": "Cowley",
      "hmo_count": 0,
      "selective_count": 17,
      "doors": 17,
      "renters": 51
     },
     {
      "street": "The Jackson Building Bennett Crescent",
      "hmo_count": 0,
      "selective_count": 8,
      "doors": 8,
      "renters": 31
     }
    ],
    "addresses": [
     {
      "address": "Apartment 1, Trinity Court Oxford 4, Between Towns Road, Oxford, OX4 3PP",
      "street": "Between Towns Road",
      "type": "selective",
      "agent": "NOPS",
      "occupants": 2
     },
     {
      "address": "Apartment 10, Trinity Court Oxford 4, Between Towns Road, Oxford, OX4 3PP",
      "street": "Between Towns Road",
      "type": "selective",
      "agent": "",
      "occupants": 2
     },
     {
      "address": "Apartment 11, Trinity Court Oxford 4, Between Towns Road, Oxford, OX4 3PP",
      "street": "Between Towns Road",
      "type": "selective",
      "agent": "",
      "occupants": 4
     },
     {
      "address": "Apartment 12, Trinity Court Oxford 4, Between Towns Road, Oxford, OX4 3PP",
      "street": "Between Towns Road",
      "type": "selective",
      "agent": "Amelie's",
      "occupants": 2
     },
     {
      "address": "Apartment 13, Trinity Court Oxford 4, Between Towns Road, Oxford, OX4 3PP",
      "street": "Between Towns Road",
      "type": "selective",
      "agent": "NOPS",
      "occupants": 2
     },
     {
      "address": "Apartment 15, Trinity Court Oxford 4, Between Towns Road, Oxford, OX4 3PP",
      "street": "Between Towns Road",
      "type": "selective",
      "agent": "North Oxfordshire Property Services",
      "occupants": 2
     },
     {
      "address": "Apartment 16, Trinity Court Oxford 4, Between Towns Road, Oxford, OX4 3PP",
      "street": "Between Towns Road",
      "type": "selective",
      "agent": "Estate Management Solurions",
      "occupants": 2
     },
     {
      "address": "Apartment 17, Trinity Court Oxford 4, Between Towns Road, Oxford, OX4 3PP",
      "street": "Between Towns Road",
      "type": "selective",
      "agent": "RTM",
      "occupants": 2
     },
     {
      "address": "Apartment 18, Trinity Court Oxford 4, Between Towns Road, Oxford, OX4 3PP",
      "street": "Between Towns Road",
      "type": "selective",
      "agent": "Amelie's",
      "occupants": 2
     },
     {
      "address": "Apartment 19, Trinity Court Oxford 4, Between Towns Road, Oxford, OX4 3PP",
      "street": "Between Towns Road",
      "type": "selective",
      "agent": "Estate Management Solutions",
      "occupants": 2
     },
     {
      "address": "Apartment 2, Trinity Court Oxford 4, Between Towns Road, Oxford, OX4 3PP",
      "street": "Between Towns Road",
      "type": "selective",
      "agent": "North Oxfordshire Property Services",
      "occupants": 2
     },
     {
      "address": "Apartment 20, Trinity Court Oxford 4, Between Towns Road, Oxford, OX4 3PP",
      "street": "Between Towns Road",
      "type": "selective",
      "agent": "NOPS",
      "occupants": 2
     },
     {
      "address": "Apartment 21, Trinity Court Oxford 4, Between Towns Road, Oxford, OX4 3PP",
      "street": "Between Towns Road",
      "type": "selective",
      "agent": "Amelie's",
      "occupants": 2
     },
     {
      "address": "Apartment 22, Trinity Court Oxford 4, Between Towns Road, Oxford, OX4 3PP",
      "street": "Between Towns Road",
      "type": "selective",
      "agent": "NOPS",
      "occupants": 2
     },
     {
      "address": "Apartment 23, Trinity Court Oxford 4, Between Towns Road, Oxford, OX4 3PP",
      "street": "Between Towns Road",
      "type": "selective",
      "agent": "NOPS",
      "occupants": 2
     },
     {
      "address": "Apartment 24, Trinity Court Oxford 4, Between Towns Road, Oxford, OX4 3PP",
      "street": "Between Towns Road",
      "type": "selective",
      "agent": "Scott Fraser",
      "occupants": 4
     },
     {
      "address": "Apartment 25, Trinity Court Oxford 4, Between Towns Road, Oxford, OX4 3PP",
      "street": "Between Towns Road",
      "type": "selective",
      "agent": "",
      "occupants": 2
     },
     {
      "address": "Apartment 26, Trinity Court Oxford 4, Between Towns Road, Oxford, OX4 3PP",
      "street": "Between Towns Road",
      "type": "selective",
      "agent": "NOPS",
      "occupants": 2
     },
     {
      "address": "Apartment 28, Trinity Court Oxford 4, Between Towns Road, Oxford, OX4 3PP",
      "street": "Between Towns Road",
      "type": "selective",
      "agent": "NOPS",
      "occupants": 2
     },
     {
      "address": "Apartment 29, Trinity Court Oxford 4, Between Towns Road, Oxford, OX4 3PP",
      "street": "Between Towns Road",
      "type": "selective",
      "agent": "Scott Fraser",
      "occupants": 2
     },
     {
      "address": "Apartment 3, Trinity Court Oxford 4, Between Towns Road, Oxford, OX4 3PP",
      "street": "Between Towns Road",
      "type": "selective",
      "agent": "",
      "occupants": 2
     },
     {
      "address": "Apartment 30, Trinity Court Oxford 4, Between Towns Road, Oxford, OX4 3PP",
      "street": "Between Towns Road",
      "type": "selective",
      "agent": "",
      "occupants": 2
     },
     {
      "address": "Apartment 32, Trinity Court Oxford 4, Between Towns Road, Oxford, OX4 3PP",
      "street": "Between Towns Road",
      "type": "selective",
      "agent": "NOPS",
      "occupants": 2
     },
     {
      "address": "Apartment 33, Trinity Court Oxford 4, Between Towns Road, Oxford, OX4 3PP",
      "street": "Between Towns Road",
      "type": "selective",
      "agent": "",
      "occupants": 2
     },
     {
      "address": "Apartment 34, Trinity Court Oxford 4, Between Towns Road, Oxford, OX4 3PP",
      "street": "Between Towns Road",
      "type": "selective",
      "agent": "NOPS",
      "occupants": 2
     },
     {
      "address": "Apartment 35, Trinity Court Oxford 4, Between Towns Road, Oxford, OX4 3PP",
      "street": "Between Towns Road",
      "type": "selective",
      "agent": "",
      "occupants": 2
     },
     {
      "address": "Apartment 36, Trinity Court Oxford 4, Between Towns Road, Oxford, OX4 3PP",
      "street": "Between Towns Road",
      "type": "selective",
      "agent": "NOPS",
      "occupants": 2
     },
     {
      "address": "Apartment 39, Trinity Court Oxford 4, Between Towns Road, Oxford, OX4 3PP",
      "street": "Between Towns Road",
      "type": "selective",
      "agent": "NOPS",
      "occupants": 2
     },
     {
      "address": "Apartment 4, Trinity Court Oxford 4, Between Towns Road, Oxford, OX4 3PP",
      "street": "Between Towns Road",
      "type": "selective",
      "agent": "NOPS",
      "occupants": 2
     },
     {
      "address": "Apartment 40, Trinity Court Oxford 4, Between Towns Road, Oxford, OX4 3PP",
      "street": "Between Towns Road",
      "type": "selective",
      "agent": "",
      "occupants": 4
     },
     {
      "address": "Apartment 41, Trinity Court Oxford 4, Between Towns Road, Oxford, OX4 3PP",
      "street": "Between Towns Road",
      "type": "selective",
      "agent": "",
      "occupants": 2
     },
     {
      "address": "Apartment 42, Trinity Court Oxford 4, Between Towns Road, Oxford, OX4 3PP",
      "street": "Between Towns Road",
      "type": "selective",
      "agent": "",
      "occupants": 2
     },
     {
      "address": "Apartment 43, Trinity Court Oxford 4, Between Towns Road, Oxford, OX4 3PP",
      "street": "Between Towns Road",
      "type": "selective",
      "agent": "NOPS",
      "occupants": 2
     },
     {
      "address": "Apartment 44, Trinity Court Oxford 4, Between Towns Road, Oxford, OX4 3PP",
      "street": "Between Towns Road",
      "type": "selective",
      "agent": "",
      "occupants": 2
     },
     {
      "address": "Apartment 46, Trinity Court Oxford 4, Between Towns Road, Oxford, OX4 3PP",
      "street": "Between Towns Road",
      "type": "selective",
      "agent": "NOPS",
      "occupants": 2
     },
     {
      "address": "Apartment 47, Trinity Court Oxford 4, Between Towns Road, Oxford, OX4 3PP",
      "street": "Between Towns Road",
      "type": "selective",
      "agent": "NOPS",
      "occupants": 2
     },
     {
      "address": "Apartment 48, Trinity Court Oxford 4, Between Towns Road, Oxford, OX4 3PP",
      "street": "Between Towns Road",
      "type": "selective",
      "agent": "NOPS",
      "occupants": 2
     },
     {
      "address": "Apartment 49, Trinity Court Oxford 4, Between Towns Road, Oxford, OX4 3PP",
      "street": "Between Towns Road",
      "type": "selective",
      "agent": "NOPS",
      "occupants": 2
     },
     {
      "address": "Apartment 50, Trinity Court Oxford 4, Between Towns Road, Oxford, OX4 3PP",
      "street": "Between Towns Road",
      "type": "selective",
      "agent": "NOPS",
      "occupants": 4
     },
     {
      "address": "Apartment 51, Trinity Court Oxford 4, Between Towns Road, Oxford, OX4 3PP",
      "street": "Between Towns Road",
      "type": "selective",
      "agent": "Martin & Co",
      "occupants": 2
     },
     {
      "address": "Apartment 53, Trinity Court Oxford 4, Between Towns Road, Oxford, OX4 3PP",
      "street": "Between Towns Road",
      "type": "selective",
      "agent": "NOPS",
      "occupants": 4
     },
     {
      "address": "Apartment 54, Trinity Court Oxford 4, Between Towns Road, Oxford, OX4 3PP",
      "street": "Between Towns Road",
      "type": "selective",
      "agent": "",
      "occupants": 2
     },
     {
      "address": "Apartment 55, Trinity Court Oxford 4, Between Towns Road, Oxford, OX4 3PP",
      "street": "Between Towns Road",
      "type": "selective",
      "agent": "NOPS",
      "occupants": 2
     },
     {
      "address": "Apartment 57, Trinity Court Oxford 4, Between Towns Road, Oxford, OX4 3PP",
      "street": "Between Towns Road",
      "type": "selective",
      "agent": "NOPS",
      "occupants": 4
     },
     {
      "address": "Apartment 58, Trinity Court Oxford 4, Between Towns Road, Oxford, OX4 3PP",
      "street": "Between Towns Road",
      "type": "selective",
      "agent": "NOPS",
      "occupants": 2
     },
     {
      "address": "Apartment 6, Trinity Court Oxford 4, Between Towns Road, Oxford, OX4 3PP",
      "street": "Between Towns Road",
      "type": "selective",
      "agent": "NOPS",
      "occupants": 4
     },
     {
      "address": "Apartment 7, Trinity Court Oxford 4, Between Towns Road, Oxford, OX4 3PP",
      "street": "Between Towns Road",
      "type": "selective",
      "agent": "NOPS",
      "occupants": 2
     },
     {
      "address": "Apartment 8, Trinity Court Oxford 4, Between Towns Road, Oxford, OX4 3PP",
      "street": "Between Towns Road",
      "type": "selective",
      "agent": "NOPS",
      "occupants": 2
     },
     {
      "address": "Flat 65, The Jackson Building Bennett Crescent, Oxford, OX4 2UQ",
      "street": "The Jackson Building Bennett Crescent",
      "type": "selective",
      "agent": "Finders Keepers",
      "occupants": 3
     },
     {
      "address": "Flat 67, The Jackson Building Bennett Crescent, Oxford, OX4 2UQ",
      "street": "The Jackson Building Bennett Crescent",
      "type": "selective",
      "agent": "Penny & Sinclair",
      "occupants": 3
     },
     {
      "address": "Flat 69, The Jackson Building Bennett Crescent, Oxford, OX4 2UQ",
      "street": "The Jackson Building Bennett Crescent",
      "type": "selective",
      "agent": "Scott Fraser",
      "occupants": 4
     },
     {
      "address": "Flat 73, The Jackson Building Bennett Crescent, Oxford, OX4 2UQ",
      "street": "The Jackson Building Bennett Crescent",
      "type": "selective",
      "agent": "Breckon & Breckon",
      "occupants": 4
     },
     {
      "address": "Flat 81, The Jackson Building Bennett Crescent, Oxford, OX4 2UQ",
      "street": "The Jackson Building Bennett Crescent",
      "type": "selective",
      "agent": "Carter Jonas",
      "occupants": 6
     },
     {
      "address": "Flat 85, The Jackson Building Bennett Crescent, Oxford, OX4 2UQ",
      "street": "The Jackson Building Bennett Crescent",
      "type": "selective",
      "agent": "Finders Keepers",
      "occupants": 3
     },
     {
      "address": "Flat 87, The Jackson Building Bennett Crescent, Oxford, OX4 2UQ",
      "street": "The Jackson Building Bennett Crescent",
      "type": "selective",
      "agent": "Finders Keepers",
      "occupants": 4
     },
     {
      "address": "Flat 97, The Jackson Building Bennett Crescent, Oxford, OX4 2UQ",
      "street": "The Jackson Building Bennett Crescent",
      "type": "selective",
      "agent": "Finders Keepers",
      "occupants": 4
     },
     {
      "address": "Flat 1, Cedar Court 186, Oxford Road, Cowley, Oxford, OX4 2BU",
      "street": "Cowley",
      "type": "selective",
      "agent": "Scott Fraser",
      "occupants": 3
     },
     {
      "address": "Flat 12, Cedar Court 186, Oxford Road, Cowley, Oxford, OX4 2BU",
      "street": "Cowley",
      "type": "selective",
      "agent": "",
      "occupants": 3
     },
     {
      "address": "Flat 13, Cedar Court 186, Oxford Road, Cowley, Oxford, OX4 2BU",
      "street": "Cowley",
      "type": "selective",
      "agent": "THE OXFORD PROPERTY LETTING COMPANY",
      "occupants": 3
     },
     {
      "address": "Flat 14, Cedar Court 186, Oxford Road, Cowley, Oxford, OX4 2BU",
      "street": "Cowley",
      "type": "selective",
      "agent": "Chancellors",
      "occupants": 3
     },
     {
      "address": "Flat 15, Cedar Court 186, Oxford Road, Cowley, Oxford, OX4 2BU",
      "street": "Cowley",
      "type": "selective",
      "agent": "",
      "occupants": 5
     },
     {
      "address": "Flat 16, Cedar Court 186, Oxford Road, Cowley, Oxford, OX4 2BU",
      "street": "Cowley",
      "type": "selective",
      "agent": "COUNTRYWIDE GROUP",
      "occupants": 3
     },
     {
      "address": "Flat 17, Cedar Court 186, Oxford Road, Cowley, Oxford, OX4 2BU",
      "street": "Cowley",
      "type": "selective",
      "agent": "Scott Fraser",
      "occupants": 2
     },
     {
      "address": "Flat 18, Cedar Court 186, Oxford Road, Cowley, Oxford, OX4 2BU",
      "street": "Cowley",
      "type": "selective",
      "agent": "Elwood &Co",
      "occupants": 2
     },
     {
      "address": "Flat 19, Cedar Court 186, Oxford Road, Cowley, Oxford, OX4 2BU",
      "street": "Cowley",
      "type": "selective",
      "agent": "Sterling Lettings",
      "occupants": 3
     },
     {
      "address": "Flat 20, Cedar Court 186, Oxford Road, Cowley, Oxford, OX4 2BU",
      "street": "Cowley",
      "type": "selective",
      "agent": "Sterling Lettings",
      "occupants": 3
     },
     {
      "address": "Flat 21, Cedar Court 186, Oxford Road, Cowley, Oxford, OX4 2BU",
      "street": "Cowley",
      "type": "selective",
      "agent": "Scott Fraser",
      "occupants": 3
     },
     {
      "address": "Flat 22, Cedar Court 186, Oxford Road, Cowley, Oxford, OX4 2BU",
      "street": "Cowley",
      "type": "selective",
      "agent": "Elwood & Co",
      "occupants": 3
     },
     {
      "address": "Flat 23, Cedar Court 186, Oxford Road, Cowley, Oxford, OX4 2BU",
      "street": "Cowley",
      "type": "selective",
      "agent": "Elwood & Co",
      "occupants": 3
     },
     {
      "address": "Flat 4, Cedar Court 186, Oxford Road, Cowley, Oxford, OX4 2BU",
      "street": "Cowley",
      "type": "selective",
      "agent": "Scott Fraser",
      "occupants": 3
     },
     {
      "address": "Flat 5, Cedar Court 186, Oxford Road, Cowley, Oxford, OX4 2BU",
      "street": "Cowley",
      "type": "selective",
      "agent": "SIMMONS & SONS SURVEYORS",
      "occupants": 3
     },
     {
      "address": "Flat 6, Cedar Court 186, Oxford Road, Cowley, Oxford, OX4 2BU",
      "street": "Cowley",
      "type": "selective",
      "agent": "SIMMONS & SONS SURVEYORS",
      "occupants": 3
     },
     {
      "address": "Flat 7, Cedar Court 186, Oxford Road, Cowley, Oxford, OX4 2BU",
      "street": "Cowley",
      "type": "selective",
      "agent": "",
      "occupants": 3
     }
    ]
   }
  },
  {
   "type": "Feature",
   "geometry": {
    "type": "Polygon",
    "coordinates": [
     [
      [
       -1.2112258964976303,
       51.735537190082646
      ],
      [
       -1.209775326561705,
       51.735537190082646
      ],
      [
       -1.209775326561705,
       51.73643550125764
      ],
      [
       -1.2112258964976303,
       51.73643550125764
      ],
      [
       -1.2112258964976303,
       51.735537190082646
      ]
     ]
    ]
   },
   "properties": {
    "block_id": "57592_-835",
    "label": "Silkdale Close / Salegate Lane",
    "locality": "Temple Cowley",
    "doors": 59,
    "markers": 2,
    "renters": 142,
    "renters_per_150sqm": 2.1,
    "top20_agency_listings": 30,
    "top20_per_150sqm": 0.45,
    "lat": 51.73609045762712,
    "lon": -1.2111016610169492,
    "streets": [
     {
      "street": "Silkdale Close",
      "hmo_count": 0,
      "selective_count": 52,
      "doors": 52,
      "renters": 116
     },
     {
      "street": "Salegate Lane",
      "hmo_count": 1,
      "selective_count": 6,
      "doors": 7,
      "renters": 26
     }
    ],
    "addresses": [
     {
      "address": "1, Salegate Lane, Oxford, OX4 2HQ",
      "street": "Salegate Lane",
      "type": "selective",
      "agent": "Hutton Parker",
      "occupants": 3
     },
     {
      "address": "2, Salegate Lane, Oxford, OX4 2HQ",
      "street": "Salegate Lane",
      "type": "selective",
      "agent": "Taylors",
      "occupants": 4
     },
     {
      "address": "Flat 12 Maughan House, Lizmans Court Silkdale Close, Oxford, OX4 2HE",
      "street": "Silkdale Close",
      "type": "selective",
      "agent": "",
      "occupants": 3
     },
     {
      "address": "Flat 13 Maughan House, Lizmans Court Silkdale Close, Oxford, OX4 2HE",
      "street": "Silkdale Close",
      "type": "selective",
      "agent": "Chancellors",
      "occupants": 3
     },
     {
      "address": "Flat 14 Maughan House, Lizmans Court Silkdale Close, Oxford, OX4 2HE",
      "street": "Silkdale Close",
      "type": "selective",
      "agent": "Finders Keepers",
      "occupants": 3
     },
     {
      "address": "Flat 19 Lambourn House, Lizmans Court Silkdale Close, Oxford, OX4 2HE",
      "street": "Silkdale Close",
      "type": "selective",
      "agent": "",
      "occupants": 2
     },
     {
      "address": "Flat 1maughan House, Lizmans Court Silkdale Close, Oxford, OX4 2HE",
      "street": "Silkdale Close",
      "type": "selective",
      "agent": "Lucie Mayer",
      "occupants": 3
     },
     {
      "address": "Flat 21 Lambourn House, Lizmans Court Silkdale Close, Oxford, OX4 2HE",
      "street": "Silkdale Close",
      "type": "selective",
      "agent": "Chancellors",
      "occupants": 2
     },
     {
      "address": "Flat 24 Lambourn House, Lizmans Court Silkdale Close, Oxford, OX4 2HE",
      "street": "Silkdale Close",
      "type": "selective",
      "agent": "",
      "occupants": 2
     },
     {
      "address": "Flat 27 Lambourn House, Lizmans Court Silkdale Close, Oxford, OX4 2HE",
      "street": "Silkdale Close",
      "type": "selective",
      "agent": "Andrews",
      "occupants": 2
     },
     {
      "address": "Flat 3 Maughan House, Lizmans Court Silkdale Close, Oxford, OX4 2HE",
      "street": "Silkdale Close",
      "type": "selective",
      "agent": "Hutton Parker",
      "occupants": 2
     },
     {
      "address": "Flat 30 Lambourn House, Lizmans Court Silkdale Close, Oxford, OX4 2HE",
      "street": "Silkdale Close",
      "type": "selective",
      "agent": "Chancellors",
      "occupants": 2
     },
     {
      "address": "Flat 33 Lambourn House, Lizmans Court Silkdale Close, Oxford, OX4 2HE",
      "street": "Silkdale Close",
      "type": "selective",
      "agent": "Finders Keepers",
      "occupants": 3
     },
     {
      "address": "Flat 36 Lambourn House, Lizmans Court Silkdale Close, Oxford, OX4 2HE",
      "street": "Silkdale Close",
      "type": "selective",
      "agent": "",
      "occupants": 2
     },
     {
      "address": "Flat 38 Lambourn House, Lizmans Court Silkdale Close, Oxford, OX4 2HF",
      "street": "Silkdale Close",
      "type": "selective",
      "agent": "Peerless Properties (Oxford)",
      "occupants": 2
     },
     {
      "address": "Flat 39 Lambourn House, Lizmans Court Silkdale Close, Oxford, OX4 2HF",
      "street": "Silkdale Close",
      "type": "selective",
      "agent": "College & County",
      "occupants": 2
     },
     {
      "address": "Flat 41 Lambourn House, Lizmans Court Silkdale Close, Oxford, OX4 2HF",
      "street": "Silkdale Close",
      "type": "selective",
      "agent": "Finders Keepers",
      "occupants": 2
     },
     {
      "address": "Flat 42 Lambourn House, Lizmans Court Silkdale Close, Oxford, OX4 2HF",
      "street": "Silkdale Close",
      "type": "selective",
      "agent": "Breckon & Breckon",
      "occupants": 2
     },
     {
      "address": "Flat 43 Hemingway House, Lizmans Court Silkdale Close, Oxford, OX4 2HF",
      "street": "Silkdale Close",
      "type": "selective",
      "agent": "Prestige Properties (Oxford)",
      "occupants": 1
     },
     {
      "address": "Flat 44 Hemingway House, Lizmans Court Silkdale Close, Oxford, OX4 2HF",
      "street": "Silkdale Close",
      "type": "selective",
      "agent": "Chancellors",
      "occupants": 2
     },
     {
      "address": "Flat 45 Hemingway House, Lizmans Court Silkdale Close, Oxford, OX4 2HF",
      "street": "Silkdale Close",
      "type": "selective",
      "agent": "Premier Letting",
      "occupants": 2
     },
     {
      "address": "Flat 46 Hemingway House, Lizmans Court Silkdale Close, Oxford, OX4 2HF",
      "street": "Silkdale Close",
      "type": "selective",
      "agent": "Chancellors",
      "occupants": 2
     },
     {
      "address": "Flat 48 Hemingway House, Lizmans Court Silkdale Close, Oxford, OX4 2HF",
      "street": "Silkdale Close",
      "type": "selective",
      "agent": "Chancellors",
      "occupants": 3
     },
     {
      "address": "Flat 49 Hemingway House, Lizmans Court Silkdale Close, Oxford, OX4 2HF",
      "street": "Silkdale Close",
      "type": "selective",
      "agent": "Chancellors",
      "occupants": 2
     },
     {
      "address": "Flat 5 Maughan House, Lizmans Court Silkdale Close, Oxford, OX4 2HE",
      "street": "Silkdale Close",
      "type": "selective",
      "agent": "Taylors",
      "occupants": 3
     },
     {
      "address": "Flat 50 Hemingway House, Lizmans Court Silkdale Close, Oxford, OX4 2HF",
      "street": "Silkdale Close",
      "type": "selective",
      "agent": "College & County",
      "occupants": 2
     },
     {
      "address": "Flat 51 Hemingway House, Lizmans Court Silkdale Close, Oxford, OX4 2HF",
      "street": "Silkdale Close",
      "type": "selective",
      "agent": "",
      "occupants": 2
     },
     {
      "address": "Flat 52 Hemingway House, Lizmans Court Silkdale Close, Oxford, OX4 2HF",
      "street": "Silkdale Close",
      "type": "selective",
      "agent": "College & County",
      "occupants": 2
     },
     {
      "address": "Flat 54 Hemingway House, Lizmans Court Silkdale Close, Oxford, OX4 2HF",
      "street": "Silkdale Close",
      "type": "selective",
      "agent": "Amelie's",
      "occupants": 2
     },
     {
      "address": "Flat 56 Hemingway House, Lizmans Court Silkdale Close, Oxford, OX4 2HF",
      "street": "Silkdale Close",
      "type": "selective",
      "agent": "Finders Keepers",
      "occupants": 1
     },
     {
      "address": "Flat 60 Hemingway House, Lizmans Court Silkdale Close, Oxford, OX4 2HF",
      "street": "Silkdale Close",
      "type": "selective",
      "agent": "",
      "occupants": 2
     },
     {
      "address": "Flat 61 Hemingway House, Lizmans Court Silkdale Close, Oxford, OX4 2HF",
      "street": "Silkdale Close",
      "type": "selective",
      "agent": "Peerless Properties",
      "occupants": 2
     },
     {
      "address": "Flat 63 Hemingway House, Lizmans Court Silkdale Close, Oxford, OX4 2HG",
      "street": "Silkdale Close",
      "type": "selective",
      "agent": "Ballards Estate Agents",
      "occupants": 2
     },
     {
      "address": "Flat 64 Hemingway House, Lizmans Court Silkdale Close, Oxford, OX4 2HG",
      "street": "Silkdale Close",
      "type": "selective",
      "agent": "Amelie's",
      "occupants": 2
     },
     {
      "address": "Flat 66 Hemingway House, Lizmans Court Silkdale Close, Oxford, OX4 2HG",
      "street": "Silkdale Close",
      "type": "selective",
      "agent": "Chancellors",
      "occupants": 1
     },
     {
      "address": "Flat 68 Hemingway House, Lizmans Court Silkdale Close, Oxford, OX4 2HG",
      "street": "Silkdale Close",
      "type": "selective",
      "agent": "Chancellors",
      "occupants": 2
     },
     {
      "address": "Flat 71 Hemingway House, Lizmans Court Silkdale Close, Oxford, OX4 2HG",
      "street": "Silkdale Close",
      "type": "selective",
      "agent": "",
      "occupants": 2
     },
     {
      "address": "Flat 72 Hemingway House, Lizmans Court Silkdale Close, Oxford, OX4 2HG",
      "street": "Silkdale Close",
      "type": "selective",
      "agent": "Martin & Co",
      "occupants": 3
     },
     {
      "address": "Flat 74 Hemingway House, Lizmans Court Silkdale Close, Oxford, OX4 2HG",
      "street": "Silkdale Close",
      "type": "selective",
      "agent": "Amelie's",
      "occupants": 2
     },
     {
      "address": "Flat 75 Hemingway House, Lizmans Court Silkdale Close, Oxford, OX4 2HG",
      "street": "Silkdale Close",
      "type": "selective",
      "agent": "",
      "occupants": 2
     },
     {
      "address": "Flat 76 Hemingway House, Lizmans Court Silkdale Close, Oxford, OX4 2HG",
      "street": "Silkdale Close",
      "type": "selective",
      "agent": "Chancellors",
      "occupants": 3
     },
     {
      "address": "Flat 77 Hemingway House, Lizmans Court Silkdale Close, Oxford, OX4 2HG",
      "street": "Silkdale Close",
      "type": "selective",
      "agent": "Sujaad Ahmed",
      "occupants": 2
     },
     {
      "address": "Flat 78 Hemingway House, Lizmans Court Silkdale Close, Oxford, OX4 2HG",
      "street": "Silkdale Close",
      "type": "selective",
      "agent": "",
      "occupants": 3
     },
     {
      "address": "Flat 79 Hemingway House, Lizmans Court Silkdale Close, Oxford, OX4 2HG",
      "street": "Silkdale Close",
      "type": "selective",
      "agent": "",
      "occupants": 2
     },
     {
      "address": "Flat 81 Silk House, Lizmans Court Silkdale Close, Oxford, OX4 2HG",
      "street": "Silkdale Close",
      "type": "selective",
      "agent": "Peerless Properties",
      "occupants": 3
     },
     {
      "address": "Flat 83 Silk House, Lizmans Court Silkdale Close, Oxford, OX4 2HG",
      "street": "Silkdale Close",
      "type": "selective",
      "agent": "Chancellors",
      "occupants": 2
     },
     {
      "address": "Flat 84 Silk House, Lizmans Court Silkdale Close, Oxford, OX4 2HG",
      "street": "Silkdale Close",
      "type": "selective",
      "agent": "Finders Keepers",
      "occupants": 2
     },
     {
      "address": "Flat 86 Silk House, Lizmans Court Silkdale Close, Oxford, OX4 2HG",
      "street": "Silkdale Close",
      "type": "selective",
      "agent": "",
      "occupants": 2
     },
     {
      "address": "Flat 87 Silk House, Lizmans Court Silkdale Close, Oxford, OX4 2HG",
      "street": "Silkdale Close",
      "type": "selective",
      "agent": "Taylors",
      "occupants": 2
     },
     {
      "address": "Flat 88 Fitzgerald House, Lizmans Court Silkdale Close, Oxford, OX4 2HG",
      "street": "Silkdale Close",
      "type": "selective",
      "agent": "Breckon & Breckon",
      "occupants": 3
     },
     {
      "address": "Flat 9 Maughan House, Lizmans Court Silkdale Close, Oxford, OX4 2HE",
      "street": "Silkdale Close",
      "type": "selective",
      "agent": "",
      "occupants": 3
     },
     {
      "address": "Flat 91 Fitzgerald House, Lizmans Court Silkdale Close, Oxford, OX4 2HG",
      "street": "Silkdale Close",
      "type": "selective",
      "agent": "College & County",
      "occupants": 2
     },
     {
      "address": "Flat 93 Fitzgerald House, Lizmans Court Silkdale Close, Oxford, OX4 2HG",
      "street": "Silkdale Close",
      "type": "selective",
      "agent": "",
      "occupants": 2
     },
     {
      "address": "Flat 94 Fitzgerald House, Lizmans Court Silkdale Close, Oxford, OX4 2HG",
      "street": "Silkdale Close",
      "type": "selective",
      "agent": "Chancellors",
      "occupants": 4
     },
     {
      "address": "8, Salegate Lane, Oxford, OX4 2HQ",
      "street": "Salegate Lane",
      "type": "selective",
      "agent": "",
      "occupants": 4
     },
     {
      "address": "9b, Salegate Lane, Oxford, OX4 2HQ",
      "street": "Salegate Lane",
      "type": "selective",
      "agent": "Finders Keepers",
      "occupants": 2
     },
     {
      "address": "9 Salegate Lane, OX4 2HQ",
      "street": "Salegate Lane",
      "type": "hmo",
      "agent": "",
      "occupants": 4
     },
     {
      "address": "10, Salegate Lane, Oxford, OX4 2HQ",
      "street": "Salegate Lane",
      "type": "selective",
      "agent": "Oxford Lettings",
      "occupants": 7
     },
     {
      "address": "10a, Salegate Lane, Oxford, OX4 2HQ",
      "street": "Salegate Lane",
      "type": "selective",
      "agent": "Oxford Lettings",
      "occupants": 2
     }
    ]
   }
  },
  {
   "type": "Feature",
   "geometry": {
    "type": "Polygon",
    "coordinates": [
     [
      [
       -1.2112258964976303,
       51.73374056773266
      ],
      [
       -1.209775326561705,
       51.73374056773266
      ],
      [
       -1.209775326561705,
       51.73463887890765
      ],
      [
       -1.2112258964976303,
       51.73463887890765
      ],
      [
       -1.2112258964976303,
       51.73374056773266
      ]
     ]
    ]
   },
   "properties": {
    "block_id": "57590_-835",
    "label": "Bennett Crescent / Morris House Bennett Crescent",
    "locality": "Temple Cowley",
    "doors": 35,
    "markers": 4,
    "renters": 118,
    "renters_per_150sqm": 1.8,
    "top20_agency_listings": 26,
    "top20_per_150sqm": 0.39,
    "lat": 51.734482885714286,
    "lon": -1.2108162,
    "streets": [
     {
      "street": "Bennett Crescent",
      "hmo_count": 0,
      "selective_count": 21,
      "doors": 21,
      "renters": 64
     },
     {
      "street": "Morris House Bennett Crescent",
      "hmo_count": 0,
      "selective_count": 7,
      "doors": 7,
      "renters": 28
     },
     {
      "street": "The Manor House Bennett Crescent",
      "hmo_count": 0,
      "selective_count": 3,
      "doors": 3,
      "renters": 12
     },
     {
      "street": "Oxford Military College Bennett Crescent",
      "hmo_count": 0,
      "selective_count": 3,
      "doors": 3,
      "renters": 10
     },
     {
      "street": "The Old Chapel Bennett Crescent",
      "hmo_count": 0,
      "selective_count": 1,
      "doors": 1,
      "renters": 4
     }
    ],
    "addresses": [
     {
      "address": "2, Bennett Crescent, Oxford, OX4 2UN",
      "street": "Bennett Crescent",
      "type": "selective",
      "agent": "Finders Keepers",
      "occupants": 3
     },
     {
      "address": "Flat 1, Oxford Military College Bennett Crescent, Oxford, OX4 2UG",
      "street": "Oxford Military College Bennett Crescent",
      "type": "selective",
      "agent": "Finders Keepers",
      "occupants": 2
     },
     {
      "address": "Flat 19, Morris House Bennett Crescent, Oxford, OX4 2UG",
      "street": "Morris House Bennett Crescent",
      "type": "selective",
      "agent": "Andrews",
      "occupants": 3
     },
     {
      "address": "Flat 23, Morris House Bennett Crescent, Oxford, OX4 2UG",
      "street": "Morris House Bennett Crescent",
      "type": "selective",
      "agent": "Breckon & Breckon",
      "occupants": 6
     },
     {
      "address": "Flat 25, Morris House Bennett Crescent, Oxford, OX4 2UG",
      "street": "Morris House Bennett Crescent",
      "type": "selective",
      "agent": "Chancellors",
      "occupants": 2
     },
     {
      "address": "Flat 27, Morris House Bennett Crescent, Oxford, OX4 2UG",
      "street": "Morris House Bennett Crescent",
      "type": "selective",
      "agent": "",
      "occupants": 2
     },
     {
      "address": "Flat 29, Morris House Bennett Crescent, Oxford, OX4 2UG",
      "street": "Morris House Bennett Crescent",
      "type": "selective",
      "agent": "",
      "occupants": 5
     },
     {
      "address": "Flat 31, Morris House Bennett Crescent, Oxford, OX4 2UG",
      "street": "Morris House Bennett Crescent",
      "type": "selective",
      "agent": "Scott Fraser",
      "occupants": 6
     },
     {
      "address": "Flat 35, Morris House Bennett Crescent, Oxford, OX4 2UG",
      "street": "Morris House Bennett Crescent",
      "type": "selective",
      "agent": "Finders Keepers",
      "occupants": 4
     },
     {
      "address": "Flat 37, The Old Chapel Bennett Crescent, Oxford, OX4 2UG",
      "street": "The Old Chapel Bennett Crescent",
      "type": "selective",
      "agent": "Chesterton Yeates",
      "occupants": 4
     },
     {
      "address": "Flat 41, The Manor House Bennett Crescent, Oxford, OX4 2UG",
      "street": "The Manor House Bennett Crescent",
      "type": "selective",
      "agent": "",
      "occupants": 4
     },
     {
      "address": "Flat 43, The Manor House Bennett Crescent, Oxford, OX4 2UG",
      "street": "The Manor House Bennett Crescent",
      "type": "selective",
      "agent": "Finders Keepers",
      "occupants": 4
     },
     {
      "address": "Flat 5, Oxford Military College Bennett Crescent, Oxford, OX4 2UG",
      "street": "Oxford Military College Bennett Crescent",
      "type": "selective",
      "agent": "Breckon & Breckon",
      "occupants": 4
     },
     {
      "address": "Flat 57, The Manor House Bennett Crescent, Oxford, OX4 2UG",
      "street": "The Manor House Bennett Crescent",
      "type": "selective",
      "agent": "Chancellors",
      "occupants": 4
     },
     {
      "address": "Flat 9, Oxford Military College Bennett Crescent, Oxford, OX4 2UG",
      "street": "Oxford Military College Bennett Crescent",
      "type": "selective",
      "agent": "Martin & Co",
      "occupants": 4
     },
     {
      "address": "6, Bennett Crescent, Oxford, OX4 2UN",
      "street": "Bennett Crescent",
      "type": "selective",
      "agent": "",
      "occupants": 3
     },
     {
      "address": "12, Bennett Crescent, Oxford, OX4 2UN",
      "street": "Bennett Crescent",
      "type": "selective",
      "agent": "",
      "occupants": 3
     },
     {
      "address": "18, Bennett Crescent, Oxford, OX4 2UN",
      "street": "Bennett Crescent",
      "type": "selective",
      "agent": "Finders Keepers",
      "occupants": 4
     },
     {
      "address": "20, Bennett Crescent, Oxford, OX4 2UN",
      "street": "Bennett Crescent",
      "type": "selective",
      "agent": "Chancellors",
      "occupants": 3
     },
     {
      "address": "22, Bennett Crescent, Oxford, OX4 2UN",
      "street": "Bennett Crescent",
      "type": "selective",
      "agent": "Chancellors",
      "occupants": 3
     },
     {
      "address": "24, Bennett Crescent, Oxford, OX4 2UN",
      "street": "Bennett Crescent",
      "type": "selective",
      "agent": "Finders Keepers",
      "occupants": 3
     },
     {
      "address": "30, Bennett Crescent, Oxford, OX4 2UN",
      "street": "Bennett Crescent",
      "type": "selective",
      "agent": "Savills",
      "occupants": 4
     },
     {
      "address": "44, Bennett Crescent, Oxford, OX4 2UN",
      "street": "Bennett Crescent",
      "type": "selective",
      "agent": "",
      "occupants": 3
     },
     {
      "address": "46, Bennett Crescent, Oxford, OX4 2UN",
      "street": "Bennett Crescent",
      "type": "selective",
      "agent": "Finders Keepers",
      "occupants": 3
     },
     {
      "address": "50, Bennett Crescent, Oxford, OX4 2UN",
      "street": "Bennett Crescent",
      "type": "selective",
      "agent": "Carter Jonas",
      "occupants": 3
     },
     {
      "address": "54, Bennett Crescent, Oxford, OX4 2UN",
      "street": "Bennett Crescent",
      "type": "selective",
      "agent": "",
      "occupants": 3
     },
     {
      "address": "58, Bennett Crescent, Oxford, OX4 2UN",
      "street": "Bennett Crescent",
      "type": "selective",
      "agent": "Andrews",
      "occupants": 3
     },
     {
      "address": "60, Bennett Crescent, Oxford, OX4 2UN",
      "street": "Bennett Crescent",
      "type": "selective",
      "agent": "Scott Fraser",
      "occupants": 2
     },
     {
      "address": "62, Bennett Crescent, Oxford, OX4 2UN",
      "street": "Bennett Crescent",
      "type": "selective",
      "agent": "Finders Keepers",
      "occupants": 3
     },
     {
      "address": "66, Bennett Crescent, Oxford, OX4 2UN",
      "street": "Bennett Crescent",
      "type": "selective",
      "agent": "Finders Keepers",
      "occupants": 3
     },
     {
      "address": "68, Bennett Crescent, Oxford, OX4 2UN",
      "street": "Bennett Crescent",
      "type": "selective",
      "agent": "Scott Fraser",
      "occupants": 3
     },
     {
      "address": "70, Bennett Crescent, Oxford, OX4 2UN",
      "street": "Bennett Crescent",
      "type": "selective",
      "agent": "Carter Jonas",
      "occupants": 3
     },
     {
      "address": "72, Bennett Crescent, Oxford, OX4 2UN",
      "street": "Bennett Crescent",
      "type": "selective",
      "agent": "",
      "occupants": 3
     },
     {
      "address": "101, Bennett Crescent, Oxford, OX4 2UQ",
      "street": "Bennett Crescent",
      "type": "selective",
      "agent": "Nuffield Court Management Company",
      "occupants": 3
     },
     {
      "address": "107, Bennett Crescent, Oxford, OX4 2UQ",
      "street": "Bennett Crescent",
      "type": "selective",
      "agent": "Scott Fraser",
      "occupants": 3
     }
    ]
   }
  },
  {
   "type": "Feature",
   "geometry": {
    "type": "Polygon",
    "coordinates": [
     [
      [
       -1.2170281762413315,
       51.735537190082646
      ],
      [
       -1.2155776063054062,
       51.735537190082646
      ],
      [
       -1.2155776063054062,
       51.73643550125764
      ],
      [
       -1.2170281762413315,
       51.73643550125764
      ],
      [
       -1.2170281762413315,
       51.735537190082646
      ]
     ]
    ]
   },
   "properties": {
    "block_id": "57592_-839",
    "label": "Oxford Road / Clive Road",
    "locality": "Florence Park",
    "doors": 24,
    "markers": 7,
    "renters": 99,
    "renters_per_150sqm": 1.5,
    "top20_agency_listings": 11,
    "top20_per_150sqm": 0.16,
    "lat": 51.736044166666666,
    "lon": -1.2164695416666667,
    "streets": [
     {
      "street": "Oxford Road",
      "hmo_count": 2,
      "selective_count": 21,
      "doors": 23,
      "renters": 94
     },
     {
      "street": "Clive Road",
      "hmo_count": 1,
      "selective_count": 0,
      "doors": 1,
      "renters": 5
     }
    ],
    "addresses": [
     {
      "address": "1 Clive Road, OX4 3EJ",
      "street": "Clive Road",
      "type": "hmo",
      "agent": "",
      "occupants": 5
     },
     {
      "address": "Flat 1 103, Oxford Road, Cowley, Oxford, OX4 2ER",
      "street": "Oxford Road",
      "type": "selective",
      "agent": "Oliver James Block Management",
      "occupants": 2
     },
     {
      "address": "Flat 3 103, Oxford Road, Cowley, Oxford, OX4 2ER",
      "street": "Oxford Road",
      "type": "selective",
      "agent": "",
      "occupants": 2
     },
     {
      "address": "Flat 4 103, Oxford Road, Cowley, Oxford, OX4 2ER",
      "street": "Oxford Road",
      "type": "selective",
      "agent": "Breckon & Breckon",
      "occupants": 3
     },
     {
      "address": "Flat 5 103, Oxford Road, Cowley, Oxford, OX4 2ER",
      "street": "Oxford Road",
      "type": "selective",
      "agent": "Oliver James",
      "occupants": 3
     },
     {
      "address": "Temple Court Mews 109, Oxford Road, Cowley, Oxford, OX4 2ER",
      "street": "Oxford Road",
      "type": "selective",
      "agent": "Thomas Merrifield",
      "occupants": 22
     },
     {
      "address": "Flat 1 111, Oxford Road, Cowley, Oxford, OX4 2ER",
      "street": "Oxford Road",
      "type": "selective",
      "agent": "Chancellors",
      "occupants": 2
     },
     {
      "address": "Flat 3 111, Oxford Road, Cowley, Oxford, OX4 2ER",
      "street": "Oxford Road",
      "type": "selective",
      "agent": "Scott Fraser",
      "occupants": 4
     },
     {
      "address": "Flat 4 111, Oxford Road, Cowley, Oxford, OX4 2ER",
      "street": "Oxford Road",
      "type": "selective",
      "agent": "Common Ground",
      "occupants": 2
     },
     {
      "address": "Flat 6 111, Oxford Road, Cowley, Oxford, OX4 2ER",
      "street": "Oxford Road",
      "type": "selective",
      "agent": "Breckon & Breckon",
      "occupants": 4
     },
     {
      "address": "Flat 1 113, Oxford Road, Cowley, Oxford, OX4 2GY",
      "street": "Oxford Road",
      "type": "selective",
      "agent": "",
      "occupants": 3
     },
     {
      "address": "Flat 10 113, Oxford Road, Cowley, Oxford, OX4 2GY",
      "street": "Oxford Road",
      "type": "selective",
      "agent": "",
      "occupants": 3
     },
     {
      "address": "Flat 11 113, Oxford Road, Cowley, Oxford, OX4 2GY",
      "street": "Oxford Road",
      "type": "selective",
      "agent": "Chancellors",
      "occupants": 3
     },
     {
      "address": "Flat 13 113, Oxford Road, Cowley, Oxford, OX4 2GY",
      "street": "Oxford Road",
      "type": "selective",
      "agent": "",
      "occupants": 3
     },
     {
      "address": "Flat 14 113, Oxford Road, Cowley, Oxford, OX4 2GY",
      "street": "Oxford Road",
      "type": "selective",
      "agent": "",
      "occupants": 3
     },
     {
      "address": "Flat 2 113, Oxford Road, Cowley, Oxford, OX4 2GY",
      "street": "Oxford Road",
      "type": "selective",
      "agent": "Elwood & Co",
      "occupants": 2
     },
     {
      "address": "Flat 3 113, Oxford Road, Cowley, Oxford, OX4 2GY",
      "street": "Oxford Road",
      "type": "selective",
      "agent": "",
      "occupants": 2
     },
     {
      "address": "Flat 6 113, Oxford Road, Cowley, Oxford, OX4 2GY",
      "street": "Oxford Road",
      "type": "selective",
      "agent": "Chancellors",
      "occupants": 4
     },
     {
      "address": "Flat 7 113, Oxford Road, Cowley, Oxford, OX4 2GY",
      "street": "Oxford Road",
      "type": "selective",
      "agent": "Scott Fraser",
      "occupants": 4
     },
     {
      "address": "Flat 8 113, Oxford Road, Cowley, Oxford, OX4 2GY",
      "street": "Oxford Road",
      "type": "selective",
      "agent": "College & County",
      "occupants": 4
     },
     {
      "address": "119, Oxford Road, Cowley, Oxford, OX4 2ES",
      "street": "Oxford Road",
      "type": "selective",
      "agent": "Oxford Lettings",
      "occupants": 9
     },
     {
      "address": "126, Oxford Road, Cowley, Oxford, OX4 2DU",
      "street": "Oxford Road",
      "type": "selective",
      "agent": "Letting4oxford",
      "occupants": 2
     },
     {
      "address": "126A Oxford Road, Cowley, OX4 2DU",
      "street": "Oxford Road",
      "type": "hmo",
      "agent": "Mr Mark Dane Rawlins",
      "occupants": 4
     },
     {
      "address": "126B Oxford Road, Cowley, OX4 2DU",
      "street": "Oxford Road",
      "type": "hmo",
      "agent": "Mr Mark Rawlins",
      "occupants": 4
     }
    ]
   }
  },
  {
   "type": "Feature",
   "geometry": {
    "type": "Polygon",
    "coordinates": [
     [
      [
       -1.2228304559850327,
       51.72835070068272
      ],
      [
       -1.2213798860491074,
       51.72835070068272
      ],
      [
       -1.2213798860491074,
       51.72924901185771
      ],
      [
       -1.2228304559850327,
       51.72924901185771
      ],
      [
       -1.2228304559850327,
       51.72835070068272
      ]
     ]
    ]
   },
   "properties": {
    "block_id": "57584_-843",
    "label": "Kelburne Road / Church Hill Road",
    "locality": "Rose Hill",
    "doors": 25,
    "markers": 12,
    "renters": 93,
    "renters_per_150sqm": 1.4,
    "top20_agency_listings": 11,
    "top20_per_150sqm": 0.16,
    "lat": 51.72879312,
    "lon": -1.2219035599999999,
    "streets": [
     {
      "street": "Kelburne Road",
      "hmo_count": 1,
      "selective_count": 22,
      "doors": 23,
      "renters": 80
     },
     {
      "street": "Westbury Crescent",
      "hmo_count": 0,
      "selective_count": 1,
      "doors": 1,
      "renters": 8
     },
     {
      "street": "Church Hill Road",
      "hmo_count": 0,
      "selective_count": 1,
      "doors": 1,
      "renters": 5
     }
    ],
    "addresses": [
     {
      "address": "1, Queen's Court 36, Kelburne Road, Oxford, OX4 3SH",
      "street": "Kelburne Road",
      "type": "selective",
      "agent": "College & County",
      "occupants": 6
     },
     {
      "address": "2, Queen's Court 36, Kelburne Road, Oxford, OX4 3SH",
      "street": "Kelburne Road",
      "type": "selective",
      "agent": "",
      "occupants": 4
     },
     {
      "address": "4, Queen's Court 36, Kelburne Road, Oxford, OX4 3SH",
      "street": "Kelburne Road",
      "type": "selective",
      "agent": "Scott Fraser",
      "occupants": 3
     },
     {
      "address": "6, Queen's Court 36, Kelburne Road, Oxford, OX4 3SH",
      "street": "Kelburne Road",
      "type": "selective",
      "agent": "Chancellors",
      "occupants": 4
     },
     {
      "address": "8, Queen's Court 36, Kelburne Road, Oxford, OX4 3SH",
      "street": "Kelburne Road",
      "type": "selective",
      "agent": "Chancellors",
      "occupants": 4
     },
     {
      "address": "10, Queen's Court 36, Kelburne Road, Oxford, OX4 3SH",
      "street": "Kelburne Road",
      "type": "selective",
      "agent": "Response Organisation",
      "occupants": 4
     },
     {
      "address": "12, Queen's Court 36, Kelburne Road, Oxford, OX4 3SH",
      "street": "Kelburne Road",
      "type": "selective",
      "agent": "Chancellors",
      "occupants": 4
     },
     {
      "address": "14, Queen's Court 36, Kelburne Road, Oxford, OX4 3SH",
      "street": "Kelburne Road",
      "type": "selective",
      "agent": "",
      "occupants": 4
     },
     {
      "address": "17, Queen's Court 36, Kelburne Road, Oxford, OX4 3SH",
      "street": "Kelburne Road",
      "type": "selective",
      "agent": "Scott Fraser",
      "occupants": 4
     },
     {
      "address": "33, Kelburne Road, Oxford, OX4 3SQ",
      "street": "Kelburne Road",
      "type": "selective",
      "agent": "",
      "occupants": 4
     },
     {
      "address": "40, Kelburne Road, Oxford, OX4 3SH",
      "street": "Kelburne Road",
      "type": "selective",
      "agent": "",
      "occupants": 4
     },
     {
      "address": "Flat A Upper Floor 41, Kelburne Road, Oxford, OX4 3SQ",
      "street": "Kelburne Road",
      "type": "selective",
      "agent": "",
      "occupants": 2
     },
     {
      "address": "Flat B Ground Floor 41, Kelburne Road, Oxford, OX4 3SQ",
      "street": "Kelburne Road",
      "type": "selective",
      "agent": "",
      "occupants": 2
     },
     {
      "address": "46 Kelburne Road, OX4 3SH",
      "street": "Kelburne Road",
      "type": "hmo",
      "agent": "Ms Emma Glover",
      "occupants": 6
     },
     {
      "address": "Flat A 47, Kelburne Road, Oxford, OX4 3SQ",
      "street": "Kelburne Road",
      "type": "selective",
      "agent": "Mazhar Dogar",
      "occupants": 2
     },
     {
      "address": "Flat B 47, Kelburne Road, Oxford, OX4 3SQ",
      "street": "Kelburne Road",
      "type": "selective",
      "agent": "",
      "occupants": 2
     },
     {
      "address": "Flat C 47, Kelburne Road, Oxford, OX4 3SQ",
      "street": "Kelburne Road",
      "type": "selective",
      "agent": "",
      "occupants": 1
     },
     {
      "address": "48, Kelburne Road, Oxford, OX4 3SH",
      "street": "Kelburne Road",
      "type": "selective",
      "agent": "Oxford Lettings",
      "occupants": 6
     },
     {
      "address": "49, Kelburne Road, Oxford, OX4 3SQ",
      "street": "Kelburne Road",
      "type": "selective",
      "agent": "College & County",
      "occupants": 4
     },
     {
      "address": "Flat A 50, Kelburne Road, Oxford, OX4 3SH",
      "street": "Kelburne Road",
      "type": "selective",
      "agent": "",
      "occupants": 2
     },
     {
      "address": "Flat B 50, Kelburne Road, Oxford, OX4 3SH",
      "street": "Kelburne Road",
      "type": "selective",
      "agent": "",
      "occupants": 2
     },
     {
      "address": "Flat C 50, Kelburne Road, Oxford, OX4 3SH",
      "street": "Kelburne Road",
      "type": "selective",
      "agent": "",
      "occupants": 2
     },
     {
      "address": "52, Church Hill Road, Oxford, OX4 3SF",
      "street": "Church Hill Road",
      "type": "selective",
      "agent": "Scott Fraser",
      "occupants": 5
     },
     {
      "address": "52, Kelburne Road, Oxford, OX4 3SH",
      "street": "Kelburne Road",
      "type": "selective",
      "agent": "Chesterton Yeates",
      "occupants": 4
     },
     {
      "address": "84, Westbury Crescent, Oxford, OX4 3SA",
      "street": "Westbury Crescent",
      "type": "selective",
      "agent": "Chancellors",
      "occupants": 8
     }
    ]
   }
  },
  {
   "type": "Feature",
   "geometry": {
    "type": "Polygon",
    "coordinates": [
     [
      [
       -1.190917917394676,
       51.71577434423284
      ],
      [
       -1.1894673474587507,
       51.71577434423284
      ],
      [
       -1.1894673474587507,
       51.716672655407834
      ],
      [
       -1.190917917394676,
       51.716672655407834
      ],
      [
       -1.190917917394676,
       51.71577434423284
      ]
     ]
    ]
   },
   "properties": {
    "block_id": "57570_-821",
    "label": "Columbine Gardens / Brake Hill",
    "locality": "Blackbird Leys",
    "doors": 24,
    "markers": 2,
    "renters": 84,
    "renters_per_150sqm": 1.3,
    "top20_agency_listings": 13,
    "top20_per_150sqm": 0.19,
    "lat": 51.7159505,
    "lon": -1.1896117499999999,
    "streets": [
     {
      "street": "Columbine Gardens",
      "hmo_count": 0,
      "selective_count": 18,
      "doors": 18,
      "renters": 58
     },
     {
      "street": "Brake Hill",
      "hmo_count": 0,
      "selective_count": 6,
      "doors": 6,
      "renters": 26
     }
    ],
    "addresses": [
     {
      "address": "10, Columbine Gardens, Oxford, OX4 7LH",
      "street": "Columbine Gardens",
      "type": "selective",
      "agent": "Taylors",
      "occupants": 4
     },
     {
      "address": "16, Columbine Gardens, Oxford, OX4 7LH",
      "street": "Columbine Gardens",
      "type": "selective",
      "agent": "Elwood & Co",
      "occupants": 2
     },
     {
      "address": "17, Columbine Gardens, Oxford, OX4 7LH",
      "street": "Columbine Gardens",
      "type": "selective",
      "agent": "Elwood & Co",
      "occupants": 2
     },
     {
      "address": "19, Columbine Gardens, Oxford, OX4 7LH",
      "street": "Columbine Gardens",
      "type": "selective",
      "agent": "NOPS",
      "occupants": 2
     },
     {
      "address": "20, Columbine Gardens, Oxford, OX4 7LH",
      "street": "Columbine Gardens",
      "type": "selective",
      "agent": "Chesterton Yeates",
      "occupants": 2
     },
     {
      "address": "21, Brake Hill, Oxford, OX4 7RU",
      "street": "Brake Hill",
      "type": "selective",
      "agent": "Hunters",
      "occupants": 4
     },
     {
      "address": "22, Brake Hill, Oxford, OX4 7NY",
      "street": "Brake Hill",
      "type": "selective",
      "agent": "Chancellors",
      "occupants": 4
     },
     {
      "address": "22, Columbine Gardens, Oxford, OX4 7LH",
      "street": "Columbine Gardens",
      "type": "selective",
      "agent": "",
      "occupants": 3
     },
     {
      "address": "27, Brake Hill, Oxford, OX4 7RU",
      "street": "Brake Hill",
      "type": "selective",
      "agent": "Chancellors",
      "occupants": 4
     },
     {
      "address": "28, Columbine Gardens, Oxford, OX4 7LH",
      "street": "Columbine Gardens",
      "type": "selective",
      "agent": "Martin & Co",
      "occupants": 4
     },
     {
      "address": "31, Columbine Gardens, Oxford, OX4 7LH",
      "street": "Columbine Gardens",
      "type": "selective",
      "agent": "Andrews",
      "occupants": 4
     },
     {
      "address": "32, Columbine Gardens, Oxford, OX4 7LH",
      "street": "Columbine Gardens",
      "type": "selective",
      "agent": "Andrews",
      "occupants": 4
     },
     {
      "address": "33, Columbine Gardens, Oxford, OX4 7LH",
      "street": "Columbine Gardens",
      "type": "selective",
      "agent": "Amelie's",
      "occupants": 3
     },
     {
      "address": "34, Columbine Gardens, Oxford, OX4 7LH",
      "street": "Columbine Gardens",
      "type": "selective",
      "agent": "Abbey Group",
      "occupants": 3
     },
     {
      "address": "35, Columbine Gardens, Oxford, OX4 7LH",
      "street": "Columbine Gardens",
      "type": "selective",
      "agent": "Chancellors",
      "occupants": 3
     },
     {
      "address": "36, Brake Hill, Oxford, OX4 7BY",
      "street": "Brake Hill",
      "type": "selective",
      "agent": "",
      "occupants": 5
     },
     {
      "address": "36, Columbine Gardens, Oxford, OX4 7LH",
      "street": "Columbine Gardens",
      "type": "selective",
      "agent": "Andrews",
      "occupants": 2
     },
     {
      "address": "39, Columbine Gardens, Oxford, OX4 7LH",
      "street": "Columbine Gardens",
      "type": "selective",
      "agent": "",
      "occupants": 2
     },
     {
      "address": "40, Brake Hill, Oxford, OX4 7BY",
      "street": "Brake Hill",
      "type": "selective",
      "agent": "Connells Estate Agents",
      "occupants": 4
     },
     {
      "address": "42, Brake Hill, Oxford, OX4 7BY",
      "street": "Brake Hill",
      "type": "selective",
      "agent": "Connells Residential Lettings",
      "occupants": 5
     },
     {
      "address": "42, Columbine Gardens, Oxford, OX4 7LH",
      "street": "Columbine Gardens",
      "type": "selective",
      "agent": "NOPS",
      "occupants": 4
     },
     {
      "address": "46, Columbine Gardens, Oxford, OX4 7LH",
      "street": "Columbine Gardens",
      "type": "selective",
      "agent": "CS Properties",
      "occupants": 4
     },
     {
      "address": "54, Columbine Gardens, Oxford, OX4 7LH",
      "street": "Columbine Gardens",
      "type": "selective",
      "agent": "CS Properties",
      "occupants": 6
     },
     {
      "address": "55, Columbine Gardens, Oxford, OX4 7LH",
      "street": "Columbine Gardens",
      "type": "selective",
      "agent": "Chancellors",
      "occupants": 4
     }
    ]
   }
  },
  {
   "type": "Feature",
   "geometry": {
    "type": "Polygon",
    "coordinates": [
     [
      [
       -1.2054236167539292,
       51.73643550125764
      ],
      [
       -1.2039730468180039,
       51.73643550125764
      ],
      [
       -1.2039730468180039,
       51.737333812432624
      ],
      [
       -1.2054236167539292,
       51.737333812432624
      ],
      [
       -1.2054236167539292,
       51.73643550125764
      ]
     ]
    ]
   },
   "properties": {
    "block_id": "57593_-831",
    "label": "Wilkins Road / Marshall Road",
    "locality": "Temple Cowley",
    "doors": 20,
    "markers": 10,
    "renters": 75,
    "renters_per_150sqm": 1.1,
    "top20_agency_listings": 13,
    "top20_per_150sqm": 0.19,
    "lat": 51.736833049999994,
    "lon": -1.2046358,
    "streets": [
     {
      "street": "Wilkins Road",
      "hmo_count": 2,
      "selective_count": 14,
      "doors": 16,
      "renters": 59
     },
     {
      "street": "Marshall Road",
      "hmo_count": 1,
      "selective_count": 3,
      "doors": 4,
      "renters": 16
     }
    ],
    "addresses": [
     {
      "address": "1b, Marshall Road, Oxford, OX4 2NP",
      "street": "Marshall Road",
      "type": "selective",
      "agent": "Oxford Lettings",
      "occupants": 2
     },
     {
      "address": "6a, Marshall Road, Oxford, OX4 2NR",
      "street": "Marshall Road",
      "type": "selective",
      "agent": "",
      "occupants": 4
     },
     {
      "address": "28, Marshall Road, Oxford, OX4 2NR",
      "street": "Marshall Road",
      "type": "selective",
      "agent": "Chancellors",
      "occupants": 5
     },
     {
      "address": "34 Marshall Road, OX4 2NR",
      "street": "Marshall Road",
      "type": "hmo",
      "agent": "Mr Aaron Masih",
      "occupants": 5
     },
     {
      "address": "37, Wilkins Road, Oxford, OX4 2HY",
      "street": "Wilkins Road",
      "type": "selective",
      "agent": "Chancellors",
      "occupants": 7
     },
     {
      "address": "40a, Wilkins Road, Oxford, OX4 2HX",
      "street": "Wilkins Road",
      "type": "selective",
      "agent": "LPM Residential",
      "occupants": 4
     },
     {
      "address": "40b, Wilkins Road, Oxford, OX4 2HX",
      "street": "Wilkins Road",
      "type": "selective",
      "agent": "LPM Residential",
      "occupants": 4
     },
     {
      "address": "43 Wilkins Road, OX4 2HY",
      "street": "Wilkins Road",
      "type": "hmo",
      "agent": "Mr Sujaad Ahmed",
      "occupants": 4
     },
     {
      "address": "44 Wilkins Road, OX4 2HX",
      "street": "Wilkins Road",
      "type": "hmo",
      "agent": "Mr Sujaad Ahmed",
      "occupants": 6
     },
     {
      "address": "45a, Wilkins Road, Oxford, OX4 2HY",
      "street": "Wilkins Road",
      "type": "selective",
      "agent": "",
      "occupants": 3
     },
     {
      "address": "45b, Wilkins Road, Oxford, OX4 2HY",
      "street": "Wilkins Road",
      "type": "selective",
      "agent": "",
      "occupants": 3
     },
     {
      "address": "Flat B 47, Wilkins Road, Oxford, OX4 2HZ",
      "street": "Wilkins Road",
      "type": "selective",
      "agent": "",
      "occupants": 4
     },
     {
      "address": "Flat D 47, Wilkins Road, Oxford, OX4 2HZ",
      "street": "Wilkins Road",
      "type": "selective",
      "agent": "Chancellors",
      "occupants": 4
     },
     {
      "address": "55, Wilkins Road, Oxford, OX4 2HZ",
      "street": "Wilkins Road",
      "type": "selective",
      "agent": "Oxford Lettings",
      "occupants": 7
     },
     {
      "address": "75a, Wilkins Road, Oxford, OX4 2HZ",
      "street": "Wilkins Road",
      "type": "selective",
      "agent": "LPM Residential",
      "occupants": 2
     },
     {
      "address": "75b, Wilkins Road, Oxford, OX4 2HZ",
      "street": "Wilkins Road",
      "type": "selective",
      "agent": "LPM Residential",
      "occupants": 2
     },
     {
      "address": "75c, Wilkins Road, Oxford, OX4 2HZ",
      "street": "Wilkins Road",
      "type": "selective",
      "agent": "LPM Residential",
      "occupants": 3
     },
     {
      "address": "77a, Wilkins Road, Oxford, OX4 2JB",
      "street": "Wilkins Road",
      "type": "selective",
      "agent": "Scott Fraser",
      "occupants": 2
     },
     {
      "address": "83b, Wilkins Road, Oxford, OX4 2JB",
      "street": "Wilkins Road",
      "type": "selective",
      "agent": "Breckon & Breckon",
      "occupants": 2
     },
     {
      "address": "91b, Wilkins Road, Oxford, OX4 2JB",
      "street": "Wilkins Road",
      "type": "selective",
      "agent": "Martin & Co",
      "occupants": 2
     }
    ]
   }
  },
  {
   "type": "Feature",
   "geometry": {
    "type": "Polygon",
    "coordinates": [
     [
      [
       -1.2199293161131821,
       51.73104563420769
      ],
      [
       -1.2184787461772568,
       51.73104563420769
      ],
      [
       -1.2184787461772568,
       51.73194394538268
      ],
      [
       -1.2199293161131821,
       51.73194394538268
      ],
      [
       -1.2199293161131821,
       51.73104563420769
      ]
     ]
    ]
   },
   "properties": {
    "block_id": "57587_-841",
    "label": "Beauchamp Lane / Crowell Road",
    "locality": "Florence Park",
    "doors": 29,
    "markers": 4,
    "renters": 91,
    "renters_per_150sqm": 1.4,
    "top20_agency_listings": 9,
    "top20_per_150sqm": 0.13,
    "lat": 51.731296620689655,
    "lon": -1.2193223103448274,
    "streets": [
     {
      "street": "Beauchamp Lane",
      "hmo_count": 0,
      "selective_count": 27,
      "doors": 27,
      "renters": 75
     },
     {
      "street": "Crowell Road",
      "hmo_count": 2,
      "selective_count": 0,
      "doors": 2,
      "renters": 16
     }
    ],
    "addresses": [
     {
      "address": "1a, Beauchamp Lane, Oxford, OX4 3LF",
      "street": "Beauchamp Lane",
      "type": "selective",
      "agent": "",
      "occupants": 5
     },
     {
      "address": "2, Beauchamp Place Beauchamp Lane, Oxford, OX4 3NE",
      "street": "Beauchamp Lane",
      "type": "selective",
      "agent": "",
      "occupants": 3
     },
     {
      "address": "3, Beauchamp Place Beauchamp Lane, Oxford, OX4 3NE",
      "street": "Beauchamp Lane",
      "type": "selective",
      "agent": "Taylors",
      "occupants": 2
     },
     {
      "address": "4, Beauchamp Place Beauchamp Lane, Oxford, OX4 3NE",
      "street": "Beauchamp Lane",
      "type": "selective",
      "agent": "Patrick Fox-Tucker",
      "occupants": 3
     },
     {
      "address": "7, Beauchamp Place Beauchamp Lane, Oxford, OX4 3NE",
      "street": "Beauchamp Lane",
      "type": "selective",
      "agent": "Common Ground",
      "occupants": 4
     },
     {
      "address": "9, Beauchamp Place Beauchamp Lane, Oxford, OX4 3NE",
      "street": "Beauchamp Lane",
      "type": "selective",
      "agent": "Common Ground",
      "occupants": 3
     },
     {
      "address": "10, Beauchamp Place Beauchamp Lane, Oxford, OX4 3NE",
      "street": "Beauchamp Lane",
      "type": "selective",
      "agent": "Scott Fraser",
      "occupants": 2
     },
     {
      "address": "10 Crowell Road, OX4 3LN",
      "street": "Crowell Road",
      "type": "hmo",
      "agent": "",
      "occupants": 7
     },
     {
      "address": "12, Beauchamp Place Beauchamp Lane, Oxford, OX4 3NE",
      "street": "Beauchamp Lane",
      "type": "selective",
      "agent": "",
      "occupants": 2
     },
     {
      "address": "13, Beauchamp Place Beauchamp Lane, Oxford, OX4 3NE",
      "street": "Beauchamp Lane",
      "type": "selective",
      "agent": "Thomas Merrifield",
      "occupants": 2
     },
     {
      "address": "14, Beauchamp Place Beauchamp Lane, Oxford, OX4 3NE",
      "street": "Beauchamp Lane",
      "type": "selective",
      "agent": "Stuart Stedman",
      "occupants": 4
     },
     {
      "address": "15, Beauchamp Place Beauchamp Lane, Oxford, OX4 3NE",
      "street": "Beauchamp Lane",
      "type": "selective",
      "agent": "Connells Residential Lettings",
      "occupants": 2
     },
     {
      "address": "16, Beauchamp Place Beauchamp Lane, Oxford, OX4 3NE",
      "street": "Beauchamp Lane",
      "type": "selective",
      "agent": "Avocado Property Group",
      "occupants": 4
     },
     {
      "address": "16 Crowell Road, OX4 3LN",
      "street": "Crowell Road",
      "type": "hmo",
      "agent": "Mr Aaron Stevens",
      "occupants": 9
     },
     {
      "address": "17, Beauchamp Place Beauchamp Lane, Oxford, OX4 3NE",
      "street": "Beauchamp Lane",
      "type": "selective",
      "agent": "Hutton Parker",
      "occupants": 2
     },
     {
      "address": "19, Beauchamp Place Beauchamp Lane, Oxford, OX4 3NE",
      "street": "Beauchamp Lane",
      "type": "selective",
      "agent": "Abbey Group",
      "occupants": 2
     },
     {
      "address": "20, Beauchamp Place Beauchamp Lane, Oxford, OX4 3NE",
      "street": "Beauchamp Lane",
      "type": "selective",
      "agent": "Andrews",
      "occupants": 3
     },
     {
      "address": "21, Beauchamp Place Beauchamp Lane, Oxford, OX4 3NE",
      "street": "Beauchamp Lane",
      "type": "selective",
      "agent": "",
      "occupants": 3
     },
     {
      "address": "25, Beauchamp Place Beauchamp Lane, Oxford, OX4 3NE",
      "street": "Beauchamp Lane",
      "type": "selective",
      "agent": "Edmund Aldworth",
      "occupants": 3
     },
     {
      "address": "27, Beauchamp Place Beauchamp Lane, Oxford, OX4 3NE",
      "street": "Beauchamp Lane",
      "type": "selective",
      "agent": "",
      "occupants": 2
     },
     {
      "address": "33, Beauchamp Place Beauchamp Lane, Oxford, OX4 3NE",
      "street": "Beauchamp Lane",
      "type": "selective",
      "agent": "",
      "occupants": 4
     },
     {
      "address": "34, Beauchamp Place Beauchamp Lane, Oxford, OX4 3NE",
      "street": "Beauchamp Lane",
      "type": "selective",
      "agent": "College & County",
      "occupants": 2
     },
     {
      "address": "37, Beauchamp Place Beauchamp Lane, Oxford, OX4 3NE",
      "street": "Beauchamp Lane",
      "type": "selective",
      "agent": "",
      "occupants": 3
     },
     {
      "address": "40, Beauchamp Place Beauchamp Lane, Oxford, OX4 3NE",
      "street": "Beauchamp Lane",
      "type": "selective",
      "agent": "",
      "occupants": 2
     },
     {
      "address": "43, Beauchamp Place Beauchamp Lane, Oxford, OX4 3NE",
      "street": "Beauchamp Lane",
      "type": "selective",
      "agent": "Breckon & Breckon",
      "occupants": 4
     },
     {
      "address": "46, Beauchamp Place Beauchamp Lane, Oxford, OX4 3NE",
      "street": "Beauchamp Lane",
      "type": "selective",
      "agent": "Hutton Parker",
      "occupants": 2
     },
     {
      "address": "49, Beauchamp Place Beauchamp Lane, Oxford, OX4 3NE",
      "street": "Beauchamp Lane",
      "type": "selective",
      "agent": "Hutton Parker",
      "occupants": 3
     },
     {
      "address": "50, Beauchamp Place Beauchamp Lane, Oxford, OX4 3NE",
      "street": "Beauchamp Lane",
      "type": "selective",
      "agent": "Abbey Group",
      "occupants": 2
     },
     {
      "address": "52, Beauchamp Place Beauchamp Lane, Oxford, OX4 3NE",
      "street": "Beauchamp Lane",
      "type": "selective",
      "agent": "Portfolio Properties",
      "occupants": 2
     }
    ]
   }
  },
  {
   "type": "Feature",
   "geometry": {
    "type": "Polygon",
    "coordinates": [
     [
      [
       -1.2112258964976303,
       51.737333812432624
      ],
      [
       -1.209775326561705,
       51.737333812432624
      ],
      [
       -1.209775326561705,
       51.73823212360762
      ],
      [
       -1.2112258964976303,
       51.73823212360762
      ],
      [
       -1.2112258964976303,
       51.737333812432624
      ]
     ]
    ]
   },
   "properties": {
    "block_id": "57594_-835",
    "label": "Don Bosco Close / Junction Road",
    "locality": "Temple Cowley",
    "doors": 20,
    "markers": 12,
    "renters": 77,
    "renters_per_150sqm": 1.2,
    "top20_agency_listings": 10,
    "top20_per_150sqm": 0.15,
    "lat": 51.73749335,
    "lon": -1.2109277999999999,
    "streets": [
     {
      "street": "Don Bosco Close",
      "hmo_count": 4,
      "selective_count": 15,
      "doors": 19,
      "renters": 73
     },
     {
      "street": "Junction Road",
      "hmo_count": 0,
      "selective_count": 1,
      "doors": 1,
      "renters": 4
     }
    ],
    "addresses": [
     {
      "address": "2, Don Bosco Close, Oxford, OX4 2LD",
      "street": "Don Bosco Close",
      "type": "selective",
      "agent": "Portfolio Properties",
      "occupants": 2
     },
     {
      "address": "3, Don Bosco Close, Oxford, OX4 2LD",
      "street": "Don Bosco Close",
      "type": "selective",
      "agent": "Elwood",
      "occupants": 2
     },
     {
      "address": "4, Temple Cloisters Junction Road, Oxford, OX4 2YG",
      "street": "Junction Road",
      "type": "selective",
      "agent": "Carter Jonas",
      "occupants": 4
     },
     {
      "address": "6, Don Bosco Close, Oxford, OX4 2LD",
      "street": "Don Bosco Close",
      "type": "selective",
      "agent": "College & County",
      "occupants": 2
     },
     {
      "address": "15, Don Bosco Close, Oxford, OX4 2LD",
      "street": "Don Bosco Close",
      "type": "selective",
      "agent": "Scott Fraser",
      "occupants": 4
     },
     {
      "address": "21 Don Bosco Close, OX4 2LD",
      "street": "Don Bosco Close",
      "type": "hmo",
      "agent": "",
      "occupants": 6
     },
     {
      "address": "22, Don Bosco Close, Oxford, OX4 2LD",
      "street": "Don Bosco Close",
      "type": "selective",
      "agent": "Finders Keepers",
      "occupants": 2
     },
     {
      "address": "23, Don Bosco Close, Oxford, OX4 2LD",
      "street": "Don Bosco Close",
      "type": "selective",
      "agent": "Allen & Harris",
      "occupants": 5
     },
     {
      "address": "29, Don Bosco Close, Oxford, OX4 2LD",
      "street": "Don Bosco Close",
      "type": "selective",
      "agent": "Eastwick Investments",
      "occupants": 2
     },
     {
      "address": "30, Don Bosco Close, Oxford, OX4 2LD",
      "street": "Don Bosco Close",
      "type": "selective",
      "agent": "Chancellors",
      "occupants": 2
     },
     {
      "address": "33, Don Bosco Close, Oxford, OX4 2LD",
      "street": "Don Bosco Close",
      "type": "selective",
      "agent": "Finders Keepers",
      "occupants": 4
     },
     {
      "address": "35, Don Bosco Close, Oxford, OX4 2LD",
      "street": "Don Bosco Close",
      "type": "selective",
      "agent": "",
      "occupants": 5
     },
     {
      "address": "36, Don Bosco Close, Oxford, OX4 2LD",
      "street": "Don Bosco Close",
      "type": "selective",
      "agent": "DL UK Property",
      "occupants": 7
     },
     {
      "address": "38 Don Bosco Close, OX4 2LD",
      "street": "Don Bosco Close",
      "type": "hmo",
      "agent": "",
      "occupants": 5
     },
     {
      "address": "40, Don Bosco Close, Oxford, OX4 2LD",
      "street": "Don Bosco Close",
      "type": "selective",
      "agent": "Bright Properties",
      "occupants": 4
     },
     {
      "address": "41 Don Bosco Close, OX4 2LD",
      "street": "Don Bosco Close",
      "type": "hmo",
      "agent": "Ms Julie Calver",
      "occupants": 3
     },
     {
      "address": "42 Don Bosco Close, OX4 2LD",
      "street": "Don Bosco Close",
      "type": "hmo",
      "agent": "",
      "occupants": 4
     },
     {
      "address": "43, Don Bosco Close, Oxford, OX4 2LD",
      "street": "Don Bosco Close",
      "type": "selective",
      "agent": "College & County",
      "occupants": 6
     },
     {
      "address": "46, Don Bosco Close, Oxford, OX4 2LD",
      "street": "Don Bosco Close",
      "type": "selective",
      "agent": "Finders Keepers",
      "occupants": 4
     },
     {
      "address": "47, Don Bosco Close, Oxford, OX4 2LD",
      "street": "Don Bosco Close",
      "type": "selective",
      "agent": "Chesterton Yeates",
      "occupants": 4
     }
    ]
   }
  },
  {
   "type": "Feature",
   "geometry": {
    "type": "Polygon",
    "coordinates": [
     [
      [
       -1.2213798860491074,
       51.72924901185771
      ],
      [
       -1.2199293161131821,
       51.72924901185771
      ],
      [
       -1.2199293161131821,
       51.730147323032696
      ],
      [
       -1.2213798860491074,
       51.730147323032696
      ],
      [
       -1.2213798860491074,
       51.72924901185771
      ]
     ]
    ]
   },
   "properties": {
    "block_id": "57585_-842",
    "label": "Wykeham Crescent / Church Hill Road",
    "locality": "Rose Hill",
    "doors": 22,
    "markers": 5,
    "renters": 69,
    "renters_per_150sqm": 1.0,
    "top20_agency_listings": 14,
    "top20_per_150sqm": 0.21,
    "lat": 51.72956318181818,
    "lon": -1.2202361363636365,
    "streets": [
     {
      "street": "Wykeham Crescent",
      "hmo_count": 0,
      "selective_count": 21,
      "doors": 21,
      "renters": 64
     },
     {
      "street": "Church Hill Road",
      "hmo_count": 0,
      "selective_count": 1,
      "doors": 1,
      "renters": 5
     }
    ],
    "addresses": [
     {
      "address": "1, Wykeham Crescent, Oxford, OX4 3SD",
      "street": "Wykeham Crescent",
      "type": "selective",
      "agent": "College & County",
      "occupants": 3
     },
     {
      "address": "10, Wykeham Crescent, Oxford, OX4 3SB",
      "street": "Wykeham Crescent",
      "type": "selective",
      "agent": "Portfolio Properties",
      "occupants": 3
     },
     {
      "address": "13, Wykeham Crescent, Oxford, OX4 3SD",
      "street": "Wykeham Crescent",
      "type": "selective",
      "agent": "Andrews",
      "occupants": 3
     },
     {
      "address": "14, Wykeham Crescent, Oxford, OX4 3SB",
      "street": "Wykeham Crescent",
      "type": "selective",
      "agent": "",
      "occupants": 3
     },
     {
      "address": "15, Wykeham Crescent, Oxford, OX4 3SD",
      "street": "Wykeham Crescent",
      "type": "selective",
      "agent": "Andrews",
      "occupants": 3
     },
     {
      "address": "17, Wykeham Crescent, Oxford, OX4 3SD",
      "street": "Wykeham Crescent",
      "type": "selective",
      "agent": "Finders Keepers",
      "occupants": 3
     },
     {
      "address": "20, Wykeham Crescent, Oxford, OX4 3SB",
      "street": "Wykeham Crescent",
      "type": "selective",
      "agent": "Andrews",
      "occupants": 3
     },
     {
      "address": "21, Wykeham Crescent, Oxford, OX4 3SD",
      "street": "Wykeham Crescent",
      "type": "selective",
      "agent": "Breckon & Breckon",
      "occupants": 3
     },
     {
      "address": "22, Wykeham Crescent, Oxford, OX4 3SB",
      "street": "Wykeham Crescent",
      "type": "selective",
      "agent": "Chancellors",
      "occupants": 3
     },
     {
      "address": "27, Wykeham Crescent, Oxford, OX4 3SD",
      "street": "Wykeham Crescent",
      "type": "selective",
      "agent": "Chancellors",
      "occupants": 3
     },
     {
      "address": "31, Wykeham Crescent, Oxford, OX4 3SD",
      "street": "Wykeham Crescent",
      "type": "selective",
      "agent": "",
      "occupants": 3
     },
     {
      "address": "32, Wykeham Crescent, Oxford, OX4 3SB",
      "street": "Wykeham Crescent",
      "type": "selective",
      "agent": "",
      "occupants": 3
     },
     {
      "address": "34, Wykeham Crescent, Oxford, OX4 3SB",
      "street": "Wykeham Crescent",
      "type": "selective",
      "agent": "Chancellors",
      "occupants": 3
     },
     {
      "address": "35, Wykeham Crescent, Oxford, OX4 3SD",
      "street": "Wykeham Crescent",
      "type": "selective",
      "agent": "Portfolio Properties",
      "occupants": 3
     },
     {
      "address": "36, Wykeham Crescent, Oxford, OX4 3SB",
      "street": "Wykeham Crescent",
      "type": "selective",
      "agent": "Penny & Sinclair",
      "occupants": 3
     },
     {
      "address": "41, Wykeham Crescent, Oxford, OX4 3SD",
      "street": "Wykeham Crescent",
      "type": "selective",
      "agent": "Hamways",
      "occupants": 3
     },
     {
      "address": "42, Wykeham Crescent, Oxford, OX4 3SB",
      "street": "Wykeham Crescent",
      "type": "selective",
      "agent": "Stepping Stones",
      "occupants": 3
     },
     {
      "address": "47, Wykeham Crescent, Oxford, OX4 3SD",
      "street": "Wykeham Crescent",
      "type": "selective",
      "agent": "Portfolio Properties",
      "occupants": 3
     },
     {
      "address": "51, Wykeham Crescent, Oxford, OX4 3SD",
      "street": "Wykeham Crescent",
      "type": "selective",
      "agent": "",
      "occupants": 3
     },
     {
      "address": "53, Church Hill Road, Oxford, OX4 3SG",
      "street": "Church Hill Road",
      "type": "selective",
      "agent": "",
      "occupants": 5
     },
     {
      "address": "57, Wykeham Crescent, Oxford, OX4 3SD",
      "street": "Wykeham Crescent",
      "type": "selective",
      "agent": "",
      "occupants": 3
     },
     {
      "address": "59, Wykeham Crescent, Oxford, OX4 3SD",
      "street": "Wykeham Crescent",
      "type": "selective",
      "agent": "Andrews",
      "occupants": 4
     }
    ]
   }
  }
 ]
}