{
 "type": "FeatureCollection",
 "features": [
  {
   "type": "Feature",
   "geometry": {
    "type": "Point",
    "coordinates": [
     -1.210986,
     51.73769
    ]
   },
   "properties": {
    "street": "Don Bosco Close",
    "addresses": [
     "38 Don Bosco Close, OX4 2LD"
    ],
    "agents": [],
    "top20_agency": false,
    "door_count": 1
   }
  },
  {
   "type": "Feature",
   "geometry": {
    "type": "Point",
    "coordinates": [
     -1.21063,
     51.737603
    ]
   },
   "properties": {
    "street": "Don Bosco Close",
    "addresses": [
     "41 Don Bosco Close, OX4 2LD"
    ],
    "agents": [
     "Ms Julie Calver"
    ],
    "top20_agency": false,
    "door_count": 1
   }
  },
  {
   "type": "Feature",
   "geometry": {
    "type": "Point",
    "coordinates": [
     -1.211099,
     51.737381
    ]
   },
   "properties": {
    "street": "Don Bosco Close",
    "addresses": [
     "15, Don Bosco Close, Oxford, OX4 2LD",
     "2, Don Bosco Close, Oxford, OX4 2LD",
     "21 Don Bosco Close, OX4 2LD",
     "22, Don Bosco Close, Oxford, OX4 2LD",
     "23, Don Bosco Close, Oxford, OX4 2LD",
     "3, Don Bosco Close, Oxford, OX4 2LD",
     "6, Don Bosco Close, Oxford, OX4 2LD"
    ],
    "agents": [
     "Allen & Harris",
     "College & County",
     "Elwood",
     "Finders Keepers",
     "Portfolio Properties",
     "Scott Fraser"
    ],
    "top20_agency": true,
    "door_count": 7
   }
  },
  {
   "type": "Feature",
   "geometry": {
    "type": "Point",
    "coordinates": [
     -1.210662,
     51.737567
    ]
   },
   "properties": {
    "street": "Don Bosco Close",
    "addresses": [
     "42 Don Bosco Close, OX4 2LD"
    ],
    "agents": [],
    "top20_agency": false,
    "door_count": 1
   }
  },
  {
   "type": "Feature",
   "geometry": {
    "type": "Point",
    "coordinates": [
     -1.210329,
     51.735236
    ]
   },
   "properties": {
    "street": "Kirby Place",
    "addresses": [
     "18 Kirby Place, Cowley, OX4 2RX"
    ],
    "agents": [],
    "top20_agency": false,
    "door_count": 1
   }
  },
  {
   "type": "Feature",
   "geometry": {
    "type": "Point",
    "coordinates": [
     -1.210988,
     51.735498
    ]
   },
   "properties": {
    "street": "Kirby Place",
    "addresses": [
     "7 Kirby Place, OX4 2RX"
    ],
    "agents": [],
    "top20_agency": false,
    "door_count": 1
   }
  },
  {
   "type": "Feature",
   "geometry": {
    "type": "Point",
    "coordinates": [
     -1.210297,
     51.735276
    ]
   },
   "properties": {
    "street": "Kirby Place",
    "addresses": [
     "17 Kirby Place, Cowley, OX4 2RX"
    ],
    "agents": [],
    "top20_agency": false,
    "door_count": 1
   }
  },
  {
   "type": "Feature",
   "geometry": {
    "type": "Point",
    "coordinates": [
     -1.210394,
     51.735156
    ]
   },
   "properties": {
    "street": "Kirby Place",
    "addresses": [
     "20 Kirby Place, Cowley, OX4 2RX"
    ],
    "agents": [],
    "top20_agency": false,
    "door_count": 1
   }
  },
  {
   "type": "Feature",
   "geometry": {
    "type": "Point",
    "coordinates": [
     -1.210773,
     51.73545
    ]
   },
   "properties": {
    "street": "Kirby Place",
    "addresses": [
     "10 Kirby Place, OX4 2RX"
    ],
    "agents": [],
    "top20_agency": false,
    "door_count": 1
   }
  },
  {
   "type": "Feature",
   "geometry": {
    "type": "Point",
    "coordinates": [
     -1.21072,
     51.735433
    ]
   },
   "properties": {
    "street": "Kirby Place",
    "addresses": [
     "11 Kirby Place, OX4 2RX"
    ],
    "agents": [],
    "top20_agency": false,
    "door_count": 1
   }
  },
  {
   "type": "Feature",
   "geometry": {
    "type": "Point",
    "coordinates": [
     -1.211859,
     51.732516
    ]
   },
   "properties": {
    "street": "Coleridge Close",
    "addresses": [
     "10, Coleridge Close, Oxford, OX4 3JG",
     "12 Coleridge Close, OX4 3JG",
     "3, Coleridge Close, Oxford, OX4 3JG",
     "4, Coleridge Close, Oxford, OX4 3JG"
    ],
    "agents": [
     "LPM Residential"
    ],
    "top20_agency": true,
    "door_count": 4
   }
  },
  {
   "type": "Feature",
   "geometry": {
    "type": "Point",
    "coordinates": [
     -1.21403,
     51.73282
    ]
   },
   "properties": {
    "street": "Between Towns Road",
    "addresses": [
     "Between Towns Court, 13 Between Towns, OX4 3LX"
    ],
    "agents": [
     "Miss Sharon Clifford"
    ],
    "top20_agency": false,
    "door_count": 1
   }
  },
  {
   "type": "Feature",
   "geometry": {
    "type": "Point",
    "coordinates": [
     -1.212317,
     51.733355
    ]
   },
   "properties": {
    "street": "Between Towns Road",
    "addresses": [
     "Flat 1, Between Towns Court 13, Between Towns Road, Oxford, OX4 3LX",
     "Flat 17, Between Towns Court 13, Between Towns Road, Oxford, OX4 3LX",
     "Flat 18, Between Towns Court 13, Between Towns Road, Oxford, OX4 3LX",
     "Flat 2, Between Towns Court 13, Between Towns Road, Oxford, OX4 3LX"
    ],
    "agents": [
     "NOW STUDENT LIVING"
    ],
    "top20_agency": false,
    "door_count": 4
   }
  },
  {
   "type": "Feature",
   "geometry": {
    "type": "Point",
    "coordinates": [
     -1.202583,
     51.738869
    ]
   },
   "properties": {
    "street": "Ridley Road",
    "addresses": [
     "2, Ridley Road, Oxford, OX4 2QJ"
    ],
    "agents": [
     "Andrews"
    ],
    "top20_agency": true,
    "door_count": 1
   }
  },
  {
   "type": "Feature",
   "geometry": {
    "type": "Point",
    "coordinates": [
     -1.211174,
     51.737485
    ]
   },
   "properties": {
    "street": "Don Bosco Close",
    "addresses": [
     "29, Don Bosco Close, Oxford, OX4 2LD",
     "30, Don Bosco Close, Oxford, OX4 2LD",
     "33, Don Bosco Close, Oxford, OX4 2LD"
    ],
    "agents": [
     "Chancellors",
     "Eastwick Investments",
     "Finders Keepers"
    ],
    "top20_agency": true,
    "door_count": 3
   }
  },
  {
   "type": "Feature",
   "geometry": {
    "type": "Point",
    "coordinates": [
     -1.211084,
     51.737581
    ]
   },
   "properties": {
    "street": "Don Bosco Close",
    "addresses": [
     "35, Don Bosco Close, Oxford, OX4 2LD"
    ],
    "agents": [],
    "top20_agency": false,
    "door_count": 1
   }
  },
  {
   "type": "Feature",
   "geometry": {
    "type": "Point",
    "coordinates": [
     -1.211051,
     51.737617
    ]
   },
   "properties": {
    "street": "Don Bosco Close",
    "addresses": [
     "36, Don Bosco Close, Oxford, OX4 2LD"
    ],
    "agents": [
     "DL UK Property"
    ],
    "top20_agency": false,
    "door_count": 1
   }
  },
  {
   "type": "Feature",
   "geometry": {
    "type": "Point",
    "coordinates": [
     -1.210597,
     51.737639
    ]
   },
   "properties": {
    "street": "Don Bosco Close",
    "addresses": [
     "40, Don Bosco Close, Oxford, OX4 2LD"
    ],
    "agents": [
     "Bright Properties"
    ],
    "top20_agency": false,
    "door_count": 1
   }
  },
  {
   "type": "Feature",
   "geometry": {
    "type": "Point",
    "coordinates": [
     -1.210264,
     51.735315
    ]
   },
   "properties": {
    "street": "Kirby Place",
    "addresses": [
     "16, Kirby Place, Oxford, OX4 2RX"
    ],
    "agents": [
     "Scott Fraser"
    ],
    "top20_agency": true,
    "door_count": 1
   }
  },
  {
   "type": "Feature",
   "geometry": {
    "type": "Point",
    "coordinates": [
     -1.210695,
     51.737531
    ]
   },
   "properties": {
    "street": "Don Bosco Close",
    "addresses": [
     "43, Don Bosco Close, Oxford, OX4 2LD"
    ],
    "agents": [
     "College & County"
    ],
    "top20_agency": true,
    "door_count": 1
   }
  },
  {
   "type": "Feature",
   "geometry": {
    "type": "Point",
    "coordinates": [
     -1.210825,
     51.737388
    ]
   },
   "properties": {
    "street": "Don Bosco Close",
    "addresses": [
     "47, Don Bosco Close, Oxford, OX4 2LD"
    ],
    "agents": [
     "Chesterton Yeates"
    ],
    "top20_agency": true,
    "door_count": 1
   }
  },
  {
   "type": "Feature",
   "geometry": {
    "type": "Point",
    "coordinates": [
     -1.211045,
     51.735515
    ]
   },
   "properties": {
    "street": "Kirby Place",
    "addresses": [
     "6, Kirby Place, Oxford, OX4 2RX"
    ],
    "agents": [],
    "top20_agency": false,
    "door_count": 1
   }
  },
  {
   "type": "Feature",
   "geometry": {
    "type": "Point",
    "coordinates": [
     -1.210826,
     51.735466
    ]
   },
   "properties": {
    "street": "Kirby Place",
    "addresses": [
     "9, Kirby Place, Oxford, OX4 2RX"
    ],
    "agents": [
     "Lee & Lindars"
    ],
    "top20_agency": false,
    "door_count": 1
   }
  },
  {
   "type": "Feature",
   "geometry": {
    "type": "Point",
    "coordinates": [
     -1.210362,
     51.735196
    ]
   },
   "properties": {
    "street": "Kirby Place",
    "addresses": [
     "19, Kirby Place, Oxford, OX4 2RX"
    ],
    "agents": [
     "Scott Fraser"
    ],
    "top20_agency": true,
    "door_count": 1
   }
  },
  {
   "type": "Feature",
   "geometry": {
    "type": "Point",
    "coordinates": [
     -1.211332,
     51.737715
    ]
   },
   "properties": {
    "street": "Don Bosco Close",
    "addresses": [
     "27, Don Bosco Close, Oxford, OX4 2LD"
    ],
    "agents": [],
    "top20_agency": false,
    "door_count": 1
   }
  },
  {
   "type": "Feature",
   "geometry": {
    "type": "Point",
    "coordinates": [
     -1.210341,
     51.739165
    ]
   },
   "properties": {
    "street": "Turner Close",
    "addresses": [
     "10, Turner Close, Oxford, OX4 2UA",
     "11, Turner Close, Oxford, OX4 2UA",
     "14, Turner Close, Oxford, OX4 2UA",
     "15, Turner Close, Oxford, OX4 2UA",
     "17, Turner Close, Oxford, OX4 2UA",
     "19, Turner Close, Oxford, OX4 2UA",
     "22, Turner Close, Oxford, OX4 2UA",
     "24, Turner Close, Oxford, OX4 2UA",
     "28, Turner Close, Oxford, OX4 2UA",
     "30, Turner Close, Oxford, OX4 2UA",
     "36, Turner Close, Oxford, OX4 2UA",
     "40, Turner Close, Oxford, OX4 2UA",
     "7, Turner Close, Oxford, OX4 2UA"
    ],
    "agents": [
     "Andrews",
     "Chancellors",
     "Finders Keepers",
     "Penny & Sinclair",
     "Scott Fraser",
     "Sterling Lettings",
     "Top Lettings"
    ],
    "top20_agency": true,
    "door_count": 13
   }
  },
  {
   "type": "Feature",
   "geometry": {
    "type": "Point",
    "coordinates": [
     -1.211506,
     51.739272
    ]
   },
   "properties": {
    "street": "Turner Close",
    "addresses": [
     "55, Turner Close, Oxford, OX4 2UA"
    ],
    "agents": [
     "College & County"
    ],
    "top20_agency": true,
    "door_count": 1
   }
  },
  {
   "type": "Feature",
   "geometry": {
    "type": "Point",
    "coordinates": [
     -1.21118,
     51.739177
    ]
   },
   "properties": {
    "street": "Turner Close",
    "addresses": [
     "43, Turner Close, Oxford, OX4 2UA"
    ],
    "agents": [
     "Letting4oxford"
    ],
    "top20_agency": false,
    "door_count": 1
   }
  },
  {
   "type": "Feature",
   "geometry": {
    "type": "Point",
    "coordinates": [
     -1.211094,
     51.739735
    ]
   },
   "properties": {
    "street": "Turner Close",
    "addresses": [
     "77, Turner Close, Oxford, OX4 2UA"
    ],
    "agents": [
     "Amelie's"
    ],
    "top20_agency": false,
    "door_count": 1
   }
  },
  {
   "type": "Feature",
   "geometry": {
    "type": "Point",
    "coordinates": [
     -1.211162,
     51.739343
    ]
   },
   "properties": {
    "street": "Turner Close",
    "addresses": [
     "57, Turner Close, Oxford, OX4 2UA"
    ],
    "agents": [
     "Hutton Parker"
    ],
    "top20_agency": true,
    "door_count": 1
   }
  },
  {
   "type": "Feature",
   "geometry": {
    "type": "Point",
    "coordinates": [
     -1.211147,
     51.739409
    ]
   },
   "properties": {
    "street": "Turner Close",
    "addresses": [
     "61, Turner Close, Oxford, OX4 2UA"
    ],
    "agents": [
     "Penny & Sinclair"
    ],
    "top20_agency": true,
    "door_count": 1
   }
  },
  {
   "type": "Feature",
   "geometry": {
    "type": "Point",
    "coordinates": [
     -1.211132,
     51.739441
    ]
   },
   "properties": {
    "street": "Turner Close",
    "addresses": [
     "63, Turner Close, Oxford, OX4 2UA"
    ],
    "agents": [
     "Chancellors"
    ],
    "top20_agency": true,
    "door_count": 1
   }
  },
  {
   "type": "Feature",
   "geometry": {
    "type": "Point",
    "coordinates": [
     -1.21111,
     51.739592
    ]
   },
   "properties": {
    "street": "Turner Close",
    "addresses": [
     "71, Turner Close, Oxford, OX4 2UA"
    ],
    "agents": [
     "Taylors"
    ],
    "top20_agency": false,
    "door_count": 1
   }
  },
  {
   "type": "Feature",
   "geometry": {
    "type": "Point",
    "coordinates": [
     -1.211395,
     51.739245
    ]
   },
   "properties": {
    "street": "Turner Close",
    "addresses": [
     "51, Turner Close, Oxford, OX4 2UA"
    ],
    "agents": [
     "Andrews"
    ],
    "top20_agency": true,
    "door_count": 1
   }
  },
  {
   "type": "Feature",
   "geometry": {
    "type": "Point",
    "coordinates": [
     -1.210894,
     51.739081
    ]
   },
   "properties": {
    "street": "Turner Close",
    "addresses": [
     "33, Turner Close, Oxford, OX4 2UA"
    ],
    "agents": [
     "Breckon & Breckon"
    ],
    "top20_agency": true,
    "door_count": 1
   }
  },
  {
   "type": "Feature",
   "geometry": {
    "type": "Point",
    "coordinates": [
     -1.210966,
     51.739106
    ]
   },
   "properties": {
    "street": "Turner Close",
    "addresses": [
     "35, Turner Close, Oxford, OX4 2UA"
    ],
    "agents": [
     "Scott Fraser"
    ],
    "top20_agency": true,
    "door_count": 1
   }
  },
  {
   "type": "Feature",
   "geometry": {
    "type": "Point",
    "coordinates": [
     -1.211037,
     51.739118
    ]
   },
   "properties": {
    "street": "Turner Close",
    "addresses": [
     "37, Turner Close, Oxford, OX4 2UA"
    ],
    "agents": [],
    "top20_agency": false,
    "door_count": 1
   }
  },
  {
   "type": "Feature",
   "geometry": {
    "type": "Point",
    "coordinates": [
     -1.202591,
     51.739156
    ]
   },
   "properties": {
    "street": "Ridley Road",
    "addresses": [
     "1a, Ridley Road, Oxford, OX4 2QJ",
     "2a, Ridley Road, Oxford, OX4 2QJ",
     "7a, Ridley Road, Oxford, OX4 2QJ",
     "7b, Ridley Road, Oxford, OX4 2QJ"
    ],
    "agents": [
     "Andrews",
     "Chesterton Yeates"
    ],
    "top20_agency": true,
    "door_count": 4
   }
  },
  {
   "type": "Feature",
   "geometry": {
    "type": "Point",
    "coordinates": [
     -1.202742,
     51.739267
    ]
   },
   "properties": {
    "street": "Ridley Road",
    "addresses": [
     "11, Ridley Road, Oxford, OX4 2QJ"
    ],
    "agents": [
     "Jones Robinson"
    ],
    "top20_agency": false,
    "door_count": 1
   }
  },
  {
   "type": "Feature",
   "geometry": {
    "type": "Point",
    "coordinates": [
     -1.20269,
     51.73933
    ]
   },
   "properties": {
    "street": "Ridley Road",
    "addresses": [
     "13, Ridley Road, Oxford, OX4 2QJ"
    ],
    "agents": [],
    "top20_agency": false,
    "door_count": 1
   }
  },
  {
   "type": "Feature",
   "geometry": {
    "type": "Point",
    "coordinates": [
     -1.202635,
     51.73939
    ]
   },
   "properties": {
    "street": "Ridley Road",
    "addresses": [
     "15, Ridley Road, Oxford, OX4 2QJ"
    ],
    "agents": [],
    "top20_agency": false,
    "door_count": 1
   }
  },
  {
   "type": "Feature",
   "geometry": {
    "type": "Point",
    "coordinates": [
     -1.202842,
     51.739138
    ]
   },
   "properties": {
    "street": "Ridley Road",
    "addresses": [
     "7, Ridley Road, Oxford, OX4 2QJ"
    ],
    "agents": [],
    "top20_agency": false,
    "door_count": 1
   }
  },
  {
   "type": "Feature",
   "geometry": {
    "type": "Point",
    "coordinates": [
     -1.211416,
     51.732887
    ]
   },
   "properties": {
    "street": "Coleridge Close",
    "addresses": [
     "Flat 1 10, Coleridge Close, Oxford, OX4 3JG",
     "Flat 2 10, Coleridge Close, Oxford, OX4 3JG"
    ],
    "agents": [
     "LPM Residential"
    ],
    "top20_agency": true,
    "door_count": 2
   }
  },
  {
   "type": "Feature",
   "geometry": {
    "type": "Point",
    "coordinates": [
     -1.211616,
     51.732693
    ]
   },
   "properties": {
    "street": "Coleridge Close",
    "addresses": [
     "Lower Flat 11, Coleridge Close, Oxford, OX4 3JG",
     "Upper Flat 11, Coleridge Close, Oxford, OX4 3JG"
    ],
    "agents": [
     "LPM Residential"
    ],
    "top20_agency": true,
    "door_count": 2
   }
  },
  {
   "type": "Feature",
   "geometry": {
    "type": "Point",
    "coordinates": [
     -1.211451,
     51.737735
    ]
   },
   "properties": {
    "street": "Don Bosco Close",
    "addresses": [
     "26, Don Bosco Close, Oxford, OX4 2LD"
    ],
    "agents": [],
    "top20_agency": false,
    "door_count": 1
   }
  },
  {
   "type": "Feature",
   "geometry": {
    "type": "Point",
    "coordinates": [
     -1.211349,
     51.739221
    ]
   },
   "properties": {
    "street": "Turner Close",
    "addresses": [
     "49, Turner Close, Oxford, OX4 2UA"
    ],
    "agents": [],
    "top20_agency": false,
    "door_count": 1
   }
  },
  {
   "type": "Feature",
   "geometry": {
    "type": "Point",
    "coordinates": [
     -1.209262,
     51.738309
    ]
   },
   "properties": {
    "street": "Beresford Place",
    "addresses": [
     "5, Beresford Place, Oxford, OX4 2SF",
     "7, Beresford Place, Oxford, OX4 2SF",
     "8, Beresford Place, Oxford, OX4 2SF",
     "9, Beresford Place, Oxford, OX4 2SF"
    ],
    "agents": [
     "Barracks lane & crescent road management company",
     "Breckon & Breckon",
     "Chancellors",
     "College & County"
    ],
    "top20_agency": true,
    "door_count": 4
   }
  },
  {
   "type": "Feature",
   "geometry": {
    "type": "Point",
    "coordinates": [
     -1.208894,
     51.738163
    ]
   },
   "properties": {
    "street": "Beresford Place",
    "addresses": [
     "10, Beresford Place, Oxford, OX4 2SF"
    ],
    "agents": [
     "College & County"
    ],
    "top20_agency": true,
    "door_count": 1
   }
  },
  {
   "type": "Feature",
   "geometry": {
    "type": "Point",
    "coordinates": [
     -1.209345,
     51.738157
    ]
   },
   "properties": {
    "street": "Beresford Place",
    "addresses": [
     "11, Beresford Place, Oxford, OX4 2SF",
     "12, Beresford Place, Oxford, OX4 2SF",
     "15, Beresford Place, Oxford, OX4 2SF",
     "17, Beresford Place, Oxford, OX4 2SF",
     "19, Beresford Place, Oxford, OX4 2SF",
     "20, Beresford Place, Oxford, OX4 2SF",
     "21, Beresford Place, Oxford, OX4 2SF"
    ],
    "agents": [
     "College & County",
     "Finders Keepers",
     "Scott Fraser",
     "Sujaad Ahmed"
    ],
    "top20_agency": true,
    "door_count": 7
   }
  },
  {
   "type": "Feature",
   "geometry": {
    "type": "Point",
    "coordinates": [
     -1.209268,
     51.737972
    ]
   },
   "properties": {
    "street": "Beresford Place",
    "addresses": [
     "18, Beresford Place, Oxford, OX4 2SF"
    ],
    "agents": [
     "Scott Fraser"
    ],
    "top20_agency": true,
    "door_count": 1
   }
  },
  {
   "type": "Feature",
   "geometry": {
    "type": "Point",
    "coordinates": [
     -1.212553,
     51.733962
    ]
   },
   "properties": {
    "street": "Between Towns Road",
    "addresses": [
     "Apartment 1, Trinity Court Oxford 4, Between Towns Road, Oxford, OX4 3PP",
     "Apartment 10, Trinity Court Oxford 4, Between Towns Road, Oxford, OX4 3PP",
     "Apartment 11, Trinity Court Oxford 4, Between Towns Road, Oxford, OX4 3PP",
     "Apartment 12, Trinity Court Oxford 4, Between Towns Road, Oxford, OX4 3PP",
     "Apartment 13, Trinity Court Oxford 4, Between Towns Road, Oxford, OX4 3PP",
     "Apartment 15, Trinity Court Oxford 4, Between Towns Road, Oxford, OX4 3PP",
     "Apartment 16, Trinity Court Oxford 4, Between Towns Road, Oxford, OX4 3PP",
     "Apartment 17, Trinity Court Oxford 4, Between Towns Road, Oxford, OX4 3PP",
     "Apartment 18, Trinity Court Oxford 4, Between Towns Road, Oxford, OX4 3PP",
     "Apartment 19, Trinity Court Oxford 4, Between Towns Road, Oxford, OX4 3PP",
     "Apartment 2, Trinity Court Oxford 4, Between Towns Road, Oxford, OX4 3PP",
     "Apartment 20, Trinity Court Oxford 4, Between Towns Road, Oxford, OX4 3PP",
     "Apartment 21, Trinity Court Oxford 4, Between Towns Road, Oxford, OX4 3PP",
     "Apartment 22, Trinity Court Oxford 4, Between Towns Road, Oxford, OX4 3PP",
     "Apartment 23, Trinity Court Oxford 4, Between Towns Road, Oxford, OX4 3PP",
     "Apartment 24, Trinity Court Oxford 4, Between Towns Road, Oxford, OX4 3PP",
     "Apartment 25, Trinity Court Oxford 4, Between Towns Road, Oxford, OX4 3PP",
     "Apartment 26, Trinity Court Oxford 4, Between Towns Road, Oxford, OX4 3PP",
     "Apartment 28, Trinity Court Oxford 4, Between Towns Road, Oxford, OX4 3PP",
     "Apartment 29, Trinity Court Oxford 4, Between Towns Road, Oxford, OX4 3PP",
     "Apartment 3, Trinity Court Oxford 4, Between Towns Road, Oxford, OX4 3PP",
     "Apartment 30, Trinity Court Oxford 4, Between Towns Road, Oxford, OX4 3PP",
     "Apartment 32, Trinity Court Oxford 4, Between Towns Road, Oxford, OX4 3PP",
     "Apartment 33, Trinity Court Oxford 4, Between Towns Road, Oxford, OX4 3PP",
     "Apartment 34, Trinity Court Oxford 4, Between Towns Road, Oxford, OX4 3PP",
     "Apartment 35, Trinity Court Oxford 4, Between Towns Road, Oxford, OX4 3PP",
     "Apartment 36, Trinity Court Oxford 4, Between Towns Road, Oxford, OX4 3PP",
     "Apartment 39, Trinity Court Oxford 4, Between Towns Road, Oxford, OX4 3PP",
     "Apartment 4, Trinity Court Oxford 4, Between Towns Road, Oxford, OX4 3PP",
     "Apartment 40, Trinity Court Oxford 4, Between Towns Road, Oxford, OX4 3PP",
     "Apartment 41, Trinity Court Oxford 4, Between Towns Road, Oxford, OX4 3PP",
     "Apartment 42, Trinity Court Oxford 4, Between Towns Road, Oxford, OX4 3PP",
     "Apartment 43, Trinity Court Oxford 4, Between Towns Road, Oxford, OX4 3PP",
     "Apartment 44, Trinity Court Oxford 4, Between Towns Road, Oxford, OX4 3PP",
     "Apartment 46, Trinity Court Oxford 4, Between Towns Road, Oxford, OX4 3PP",
     "Apartment 47, Trinity Court Oxford 4, Between Towns Road, Oxford, OX4 3PP",
     "Apartment 48, Trinity Court Oxford 4, Between Towns Road, Oxford, OX4 3PP",
     "Apartment 49, Trinity Court Oxford 4, Between Towns Road, Oxford, OX4 3PP",
     "Apartment 50, Trinity Court Oxford 4, Between Towns Road, Oxford, OX4 3PP",
     "Apartment 51, Trinity Court Oxford 4, Between Towns Road, Oxford, OX4 3PP",
     "Apartment 53, Trinity Court Oxford 4, Between Towns Road, Oxford, OX4 3PP",
     "Apartment 54, Trinity Court Oxford 4, Between Towns Road, Oxford, OX4 3PP",
     "Apartment 55, Trinity Court Oxford 4, Between Towns Road, Oxford, OX4 3PP",
     "Apartment 57, Trinity Court Oxford 4, Between Towns Road, Oxford, OX4 3PP",
     "Apartment 58, Trinity Court Oxford 4, Between Towns Road, Oxford, OX4 3PP",
     "Apartment 6, Trinity Court Oxford 4, Between Towns Road, Oxford, OX4 3PP",
     "Apartment 7, Trinity Court Oxford 4, Between Towns Road, Oxford, OX4 3PP",
     "Apartment 8, Trinity Court Oxford 4, Between Towns Road, Oxford, OX4 3PP"
    ],
    "agents": [
     "Amelie's",
     "Estate Management Solurions",
     "Estate Management Solutions",
     "Martin & Co",
     "NOPS",
     "North Oxfordshire Property Services",
     "RTM",
     "Scott Fraser"
    ],
    "top20_agency": true,
    "door_count": 48
   }
  },
  {
   "type": "Feature",
   "geometry": {
    "type": "Point",
    "coordinates": [
     -1.210792,
     51.737424
    ]
   },
   "properties": {
    "street": "Don Bosco Close",
    "addresses": [
     "46, Don Bosco Close, Oxford, OX4 2LD"
    ],
    "agents": [
     "Finders Keepers"
    ],
    "top20_agency": true,
    "door_count": 1
   }
  },
  {
   "type": "Feature",
   "geometry": {
    "type": "Point",
    "coordinates": [
     -1.202325,
     51.739192
    ]
   },
   "properties": {
    "street": "Ridley Road",
    "addresses": [
     "12, Ridley Road, Oxford, OX4 2QJ"
    ],
    "agents": [],
    "top20_agency": false,
    "door_count": 1
   }
  },
  {
   "type": "Feature",
   "geometry": {
    "type": "Point",
    "coordinates": [
     -1.202377,
     51.739128
    ]
   },
   "properties": {
    "street": "Ridley Road",
    "addresses": [
     "10, Ridley Road, Oxford, OX4 2QJ"
    ],
    "agents": [
     "Anushika Brogan"
    ],
    "top20_agency": false,
    "door_count": 1
   }
  }
 ]
}